,Endpoint,Provider,State,City,Country,IP,geo_response,ip,type,continent_code,continent_name,country_code,country_name,region_code,region_name,city,zip,latitude,longitude,location.geoname_id,location.capital,location.languages,location.country_flag,location.country_flag_emoji,location.country_flag_emoji_unicode,location.calling_code,location.is_eu,success,error.code,error.type,error.info
0,https://ec2.us-east-1.amazonaws.com/ping,AWS,N. Virginia,Ashburn,United States,52.46.142.79,"{'ip': '52.46.142.79', 'type': 'ipv4', 'continent_code': 'NA', 'continent_name': 'North America', 'country_code': 'US', 'country_name': 'United States', 'region_code': 'VA', 'region_name': 'Virginia', 'city': 'Ashburn', 'zip': '20147', 'latitude': 39.043701171875, 'longitude': -77.47419738769531, 'location': {'geoname_id': 4744870, 'capital': 'Washington D.C.', 'languages': [{'code': 'en', 'name': 'English', 'native': 'English'}], 'country_flag': 'https://assets.ipstack.com/flags/us.svg', 'country_flag_emoji': 'ğŸ‡ºğŸ‡¸', 'country_flag_emoji_unicode': 'U+1F1FA U+1F1F8', 'calling_code': '1', 'is_eu': False}}",52.46.142.79,ipv4,NA,North America,US,United States,VA,Virginia,Ashburn,20147,39.043701171875,-77.47419738769531,4744870.0,Washington D.C.,"[{'code': 'en', 'name': 'English', 'native': 'English'}]",https://assets.ipstack.com/flags/us.svg,ğŸ‡ºğŸ‡¸,U+1F1FA U+1F1F8,1,False,,,,
1,https://ec2.us-east-2.amazonaws.com/ping,AWS,Ohio,Columbus,United States,99.78.176.246,"{'ip': '99.78.176.246', 'type': 'ipv4', 'continent_code': 'NA', 'continent_name': 'North America', 'country_code': 'US', 'country_name': 'United States', 'region_code': 'OH', 'region_name': 'Ohio', 'city': 'Columbus', 'zip': '43201', 'latitude': 39.99557876586914, 'longitude': -82.99945831298828, 'location': {'geoname_id': 4509177, 'capital': 'Washington D.C.', 'languages': [{'code': 'en', 'name': 'English', 'native': 'English'}], 'country_flag': 'https://assets.ipstack.com/flags/us.svg', 'country_flag_emoji': 'ğŸ‡ºğŸ‡¸', 'country_flag_emoji_unicode': 'U+1F1FA U+1F1F8', 'calling_code': '1', 'is_eu': False}}",99.78.176.246,ipv4,NA,North America,US,United States,OH,Ohio,Columbus,43201,39.99557876586914,-82.99945831298828,4509177.0,Washington D.C.,"[{'code': 'en', 'name': 'English', 'native': 'English'}]",https://assets.ipstack.com/flags/us.svg,ğŸ‡ºğŸ‡¸,U+1F1FA U+1F1F8,1,False,,,,
2,https://ec2.us-west-1.amazonaws.com/ping,AWS,N. California,San Francisco,United States,176.32.118.30,"{'ip': '176.32.118.30', 'type': 'ipv4', 'continent_code': 'NA', 'continent_name': 'North America', 'country_code': 'US', 'country_name': 'United States', 'region_code': 'CA', 'region_name': 'California', 'city': 'San Jose', 'zip': '95122', 'latitude': 37.330528259277344, 'longitude': -121.83822631835938, 'location': {'geoname_id': 5392171, 'capital': 'Washington D.C.', 'languages': [{'code': 'en', 'name': 'English', 'native': 'English'}], 'country_flag': 'https://assets.ipstack.com/flags/us.svg', 'country_flag_emoji': 'ğŸ‡ºğŸ‡¸', 'country_flag_emoji_unicode': 'U+1F1FA U+1F1F8', 'calling_code': '1', 'is_eu': False}}",176.32.118.30,ipv4,NA,North America,US,United States,CA,California,San Jose,95122,37.330528259277344,-121.83822631835938,5392171.0,Washington D.C.,"[{'code': 'en', 'name': 'English', 'native': 'English'}]",https://assets.ipstack.com/flags/us.svg,ğŸ‡ºğŸ‡¸,U+1F1FA U+1F1F8,1,False,,,,
4,https://ec2.us-west-2.amazonaws.com/ping,AWS,Oregon,Portland,United States,52.94.214.88,"{'ip': '52.94.214.88', 'type': 'ipv4', 'continent_code': 'NA', 'continent_name': 'North America', 'country_code': 'US', 'country_name': 'United States', 'region_code': 'OR', 'region_name': 'Oregon', 'city': 'Boardman', 'zip': '97818', 'latitude': 45.83599853515625, 'longitude': -119.6989974975586, 'location': {'geoname_id': None, 'capital': 'Washington D.C.', 'languages': [{'code': 'en', 'name': 'English', 'native': 'English'}], 'country_flag': 'https://assets.ipstack.com/flags/us.svg', 'country_flag_emoji': 'ğŸ‡ºğŸ‡¸', 'country_flag_emoji_unicode': 'U+1F1FA U+1F1F8', 'calling_code': '1', 'is_eu': False}}",52.94.214.88,ipv4,NA,North America,US,United States,OR,Oregon,Boardman,97818,45.83599853515625,-119.6989974975586,,Washington D.C.,"[{'code': 'en', 'name': 'English', 'native': 'English'}]",https://assets.ipstack.com/flags/us.svg,ğŸ‡ºğŸ‡¸,U+1F1FA U+1F1F8,1,False,,,,
5,https://ec2.ap-east-1.amazonaws.com/ping,AWS,Hong Kong,Hong Kong,Hong Kong,13.248.32.123,"{'ip': '13.248.32.123', 'type': 'ipv4', 'continent_code': 'AS', 'continent_name': 'Asia', 'country_code': 'HK', 'country_name': 'Hong Kong SAR China', 'region_code': 'HSO', 'region_name': 'Southern', 'city': 'Aberdeen', 'zip': None, 'latitude': 22.248310089111328, 'longitude': 114.15239715576172, 'location': {'geoname_id': 1819757, 'capital': 'City of Victoria', 'languages': [{'code': 'zh', 'name': 'Chinese', 'native': 'ä¸­æ–‡'}, {'code': 'en', 'name': 'English', 'native': 'English'}], 'country_flag': 'https://assets.ipstack.com/flags/hk.svg', 'country_flag_emoji': 'ğŸ‡­ğŸ‡°', 'country_flag_emoji_unicode': 'U+1F1ED U+1F1F0', 'calling_code': '852', 'is_eu': False}}",13.248.32.123,ipv4,AS,Asia,HK,Hong Kong SAR China,HSO,Southern,Aberdeen,,22.248310089111328,114.15239715576172,1819757.0,City of Victoria,"[{'code': 'zh', 'name': 'Chinese', 'native': 'ä¸­æ–‡'}, {'code': 'en', 'name': 'English', 'native': 'English'}]",https://assets.ipstack.com/flags/hk.svg,ğŸ‡­ğŸ‡°,U+1F1ED U+1F1F0,852,False,,,,
6,https://ec2.ap-south-1.amazonaws.com/ping,AWS,Mumbai,Mumbai,India,52.95.88.14,"{'ip': '52.95.88.14', 'type': 'ipv4', 'continent_code': 'AS', 'continent_name': 'Asia', 'country_code': 'IN', 'country_name': 'India', 'region_code': 'MH', 'region_name': 'Maharashtra', 'city': 'Powai', 'zip': '400070', 'latitude': 19.076000213623047, 'longitude': 72.87770080566406, 'location': {'geoname_id': 6324621, 'capital': 'New Delhi', 'languages': [{'code': 'hi', 'name': 'Hindi', 'native': 'à¤¹à¤¿à¤¨à¥à¤¦à¥€'}, {'code': 'en', 'name': 'English', 'native': 'English'}], 'country_flag': 'https://assets.ipstack.com/flags/in.svg', 'country_flag_emoji': 'ğŸ‡®ğŸ‡³', 'country_flag_emoji_unicode': 'U+1F1EE U+1F1F3', 'calling_code': '91', 'is_eu': False}}",52.95.88.14,ipv4,AS,Asia,IN,India,MH,Maharashtra,Powai,400070,19.076000213623047,72.87770080566406,6324621.0,New Delhi,"[{'code': 'hi', 'name': 'Hindi', 'native': 'à¤¹à¤¿à¤¨à¥à¤¦à¥€'}, {'code': 'en', 'name': 'English', 'native': 'English'}]",https://assets.ipstack.com/flags/in.svg,ğŸ‡®ğŸ‡³,U+1F1EE U+1F1F3,91,False,,,,
7,https://ec2.ap-northeast-3.amazonaws.com/ping,AWS,Osaka,Osaka,Japan,13.248.4.70,"{'ip': '13.248.4.70', 'type': 'ipv4', 'continent_code': 'AS', 'continent_name': 'Asia', 'country_code': 'JP', 'country_name': 'Japan', 'region_code': '27', 'region_name': 'ÅŒsaka', 'city': 'Osaka', 'zip': '542-0082', 'latitude': 34.69369888305664, 'longitude': 135.502197265625, 'location': {'geoname_id': 1853909, 'capital': 'Tokyo', 'languages': [{'code': 'ja', 'name': 'Japanese', 'native': 'æ—¥æœ¬èª'}], 'country_flag': 'https://assets.ipstack.com/flags/jp.svg', 'country_flag_emoji': 'ğŸ‡¯ğŸ‡µ', 'country_flag_emoji_unicode': 'U+1F1EF U+1F1F5', 'calling_code': '81', 'is_eu': False}}",13.248.4.70,ipv4,AS,Asia,JP,Japan,27,ÅŒsaka,Osaka,542-0082,34.69369888305664,135.502197265625,1853909.0,Tokyo,"[{'code': 'ja', 'name': 'Japanese', 'native': 'æ—¥æœ¬èª'}]",https://assets.ipstack.com/flags/jp.svg,ğŸ‡¯ğŸ‡µ,U+1F1EF U+1F1F5,81,False,,,,
9,https://ec2.ap-northeast-2.amazonaws.com/ping,AWS,Seoul,Seoul,South Korea,52.95.193.80,"{'ip': '52.95.193.80', 'type': 'ipv4', 'continent_code': 'AS', 'continent_name': 'Asia', 'country_code': 'KR', 'country_name': 'South Korea', 'region_code': '28', 'region_name': 'Incheon', 'city': 'Incheon', 'zip': '400-011', 'latitude': 37.47480010986328, 'longitude': 126.63075256347656, 'location': {'geoname_id': 1843564, 'capital': 'Seoul', 'languages': [{'code': 'ko', 'name': 'Korean', 'native': 'í•œêµ­ì–´'}], 'country_flag': 'https://assets.ipstack.com/flags/kr.svg', 'country_flag_emoji': 'ğŸ‡°ğŸ‡·', 'country_flag_emoji_unicode': 'U+1F1F0 U+1F1F7', 'calling_code': '82', 'is_eu': False}}",52.95.193.80,ipv4,AS,Asia,KR,South Korea,28,Incheon,Incheon,400-011,37.47480010986328,126.63075256347656,1843564.0,Seoul,"[{'code': 'ko', 'name': 'Korean', 'native': 'í•œêµ­ì–´'}]",https://assets.ipstack.com/flags/kr.svg,ğŸ‡°ğŸ‡·,U+1F1F0 U+1F1F7,82,False,,,,
10,https://ec2.ap-southeast-1.amazonaws.com/ping,AWS,Singapore,Singapore,Singapore,15.221.8.221,"{'ip': '15.221.8.221', 'type': 'ipv4', 'continent_code': 'AS', 'continent_name': 'Asia', 'country_code': 'SG', 'country_name': 'Singapore', 'region_code': '01', 'region_name': 'Central Singapore', 'city': 'Singapore', 'zip': '247964', 'latitude': 1.287950038909912, 'longitude': 103.8517837524414, 'location': {'geoname_id': 1880252, 'capital': 'Singapore', 'languages': [{'code': 'en', 'name': 'English', 'native': 'English'}, {'code': 'ms', 'name': 'Malay', 'native': 'Bahasa Melayu'}, {'code': 'ta', 'name': 'Tamil', 'native': 'à®¤à®®à®¿à®´à¯'}, {'code': 'zh', 'name': 'Chinese', 'native': 'ä¸­æ–‡'}], 'country_flag': 'https://assets.ipstack.com/flags/sg.svg', 'country_flag_emoji': 'ğŸ‡¸ğŸ‡¬', 'country_flag_emoji_unicode': 'U+1F1F8 U+1F1EC', 'calling_code': '65', 'is_eu': False}}",15.221.8.221,ipv4,AS,Asia,SG,Singapore,01,Central Singapore,Singapore,247964,1.287950038909912,103.8517837524414,1880252.0,Singapore,"[{'code': 'en', 'name': 'English', 'native': 'English'}, {'code': 'ms', 'name': 'Malay', 'native': 'Bahasa Melayu'}, {'code': 'ta', 'name': 'Tamil', 'native': 'à®¤à®®à®¿à®´à¯'}, {'code': 'zh', 'name': 'Chinese', 'native': 'ä¸­æ–‡'}]",https://assets.ipstack.com/flags/sg.svg,ğŸ‡¸ğŸ‡¬,U+1F1F8 U+1F1EC,65,False,,,,
11,https://ec2.ap-southeast-2.amazonaws.com/ping,AWS,Sydney,Sydney,Australia,99.83.82.12,"{'ip': '99.83.82.12', 'type': 'ipv4', 'continent_code': 'OC', 'continent_name': 'Oceania', 'country_code': 'AU', 'country_name': 'Australia', 'region_code': 'NSW', 'region_name': 'New South Wales', 'city': 'Sydney', 'zip': '2000', 'latitude': -33.868900299072266, 'longitude': 151.2071075439453, 'location': {'geoname_id': 2147714, 'capital': 'Canberra', 'languages': [{'code': 'en', 'name': 'English', 'native': 'English'}], 'country_flag': 'https://assets.ipstack.com/flags/au.svg', 'country_flag_emoji': 'ğŸ‡¦ğŸ‡º', 'country_flag_emoji_unicode': 'U+1F1E6 U+1F1FA', 'calling_code': '61', 'is_eu': False}}",99.83.82.12,ipv4,OC,Oceania,AU,Australia,NSW,New South Wales,Sydney,2000,-33.868900299072266,151.2071075439453,2147714.0,Canberra,"[{'code': 'en', 'name': 'English', 'native': 'English'}]",https://assets.ipstack.com/flags/au.svg,ğŸ‡¦ğŸ‡º,U+1F1E6 U+1F1FA,61,False,,,,
13,https://ec2.ap-southeast-3.amazonaws.com/ping,AWS,Jakarta,Jakarta,Indonesia,99.78.244.123,"{'ip': '99.78.244.123', 'type': 'ipv4', 'continent_code': 'AS', 'continent_name': 'Asia', 'country_code': 'ID', 'country_name': 'Indonesia', 'region_code': 'JK', 'region_name': 'Jakarta', 'city': 'Jakarta', 'zip': '10110', 'latitude': -6.21150016784668, 'longitude': 106.84519958496094, 'location': {'geoname_id': 1642911, 'capital': 'Jakarta', 'languages': [{'code': 'id', 'name': 'Indonesian', 'native': 'Bahasa Indonesia'}], 'country_flag': 'https://assets.ipstack.com/flags/id.svg', 'country_flag_emoji': 'ğŸ‡®ğŸ‡©', 'country_flag_emoji_unicode': 'U+1F1EE U+1F1E9', 'calling_code': '62', 'is_eu': False}}",99.78.244.123,ipv4,AS,Asia,ID,Indonesia,JK,Jakarta,Jakarta,10110,-6.21150016784668,106.84519958496094,1642911.0,Jakarta,"[{'code': 'id', 'name': 'Indonesian', 'native': 'Bahasa Indonesia'}]",https://assets.ipstack.com/flags/id.svg,ğŸ‡®ğŸ‡©,U+1F1EE U+1F1E9,62,False,,,,
14,https://ec2.ap-northeast-1.amazonaws.com/ping,AWS,Tokyo,Tokyo,Japan,99.77.58.81,"{'ip': '99.77.58.81', 'type': 'ipv4', 'continent_code': 'AS', 'continent_name': 'Asia', 'country_code': 'JP', 'country_name': 'Japan', 'region_code': '13', 'region_name': 'Tokyo', 'city': 'Tokyo', 'zip': '162-0843', 'latitude': 35.68949890136719, 'longitude': 139.6916961669922, 'location': {'geoname_id': 1850147, 'capital': 'Tokyo', 'languages': [{'code': 'ja', 'name': 'Japanese', 'native': 'æ—¥æœ¬èª'}], 'country_flag': 'https://assets.ipstack.com/flags/jp.svg', 'country_flag_emoji': 'ğŸ‡¯ğŸ‡µ', 'country_flag_emoji_unicode': 'U+1F1EF U+1F1F5', 'calling_code': '81', 'is_eu': False}}",99.77.58.81,ipv4,AS,Asia,JP,Japan,13,Tokyo,Tokyo,162-0843,35.68949890136719,139.6916961669922,1850147.0,Tokyo,"[{'code': 'ja', 'name': 'Japanese', 'native': 'æ—¥æœ¬èª'}]",https://assets.ipstack.com/flags/jp.svg,ğŸ‡¯ğŸ‡µ,U+1F1EF U+1F1F5,81,False,,,,
15,https://ec2.ca-central-1.amazonaws.com/ping,AWS,Canada Central,Montreal,Canada,52.94.108.110,"{'ip': '52.94.108.110', 'type': 'ipv4', 'continent_code': 'NA', 'continent_name': 'North America', 'country_code': 'CA', 'country_name': 'Canada', 'region_code': 'QC', 'region_name': 'Quebec', 'city': 'MontrÃ©al', 'zip': 'H2Y 2J7', 'latitude': 45.52000045776367, 'longitude': -73.56999969482422, 'location': {'geoname_id': 6077243, 'capital': 'Ottawa', 'languages': [{'code': 'en', 'name': 'English', 'native': 'English'}, {'code': 'fr', 'name': 'French', 'native': 'FranÃ§ais'}], 'country_flag': 'https://assets.ipstack.com/flags/ca.svg', 'country_flag_emoji': 'ğŸ‡¨ğŸ‡¦', 'country_flag_emoji_unicode': 'U+1F1E8 U+1F1E6', 'calling_code': '1', 'is_eu': False}}",52.94.108.110,ipv4,NA,North America,CA,Canada,QC,Quebec,MontrÃ©al,H2Y 2J7,45.52000045776367,-73.56999969482422,6077243.0,Ottawa,"[{'code': 'en', 'name': 'English', 'native': 'English'}, {'code': 'fr', 'name': 'French', 'native': 'FranÃ§ais'}]",https://assets.ipstack.com/flags/ca.svg,ğŸ‡¨ğŸ‡¦,U+1F1E8 U+1F1E6,1,False,,,,
16,https://ec2.eu-south-1.amazonaws.com/ping,AWS,Milan,Milan,Italy,52.119.132.74,"{'ip': '52.119.132.74', 'type': 'ipv4', 'continent_code': 'EU', 'continent_name': 'Europe', 'country_code': 'IT', 'country_name': 'Italy', 'region_code': '25', 'region_name': 'Lombardy', 'city': 'Milan', 'zip': '20121', 'latitude': 45.465999603271484, 'longitude': 9.186670303344727, 'location': {'geoname_id': 3173435, 'capital': 'Rome', 'languages': [{'code': 'it', 'name': 'Italian', 'native': 'Italiano'}], 'country_flag': 'https://assets.ipstack.com/flags/it.svg', 'country_flag_emoji': 'ğŸ‡®ğŸ‡¹', 'country_flag_emoji_unicode': 'U+1F1EE U+1F1F9', 'calling_code': '39', 'is_eu': True}}",52.119.132.74,ipv4,EU,Europe,IT,Italy,25,Lombardy,Milan,20121,45.465999603271484,9.186670303344727,3173435.0,Rome,"[{'code': 'it', 'name': 'Italian', 'native': 'Italiano'}]",https://assets.ipstack.com/flags/it.svg,ğŸ‡®ğŸ‡¹,U+1F1EE U+1F1F9,39,True,,,,
17,https://ec2.eu-central-1.amazonaws.com/ping,AWS,Frankfurt,Frankfurt,Germany,52.94.141.11,"{'ip': '52.94.141.11', 'type': 'ipv4', 'continent_code': 'EU', 'continent_name': 'Europe', 'country_code': 'DE', 'country_name': 'Germany', 'region_code': 'HE', 'region_name': 'Hesse', 'city': 'Frankfurt am Main', 'zip': '60311', 'latitude': 50.11090087890625, 'longitude': 8.682100296020508, 'location': {'geoname_id': 2925533, 'capital': 'Berlin', 'languages': [{'code': 'de', 'name': 'German', 'native': 'Deutsch'}], 'country_flag': 'https://assets.ipstack.com/flags/de.svg', 'country_flag_emoji': 'ğŸ‡©ğŸ‡ª', 'country_flag_emoji_unicode': 'U+1F1E9 U+1F1EA', 'calling_code': '49', 'is_eu': True}}",52.94.141.11,ipv4,EU,Europe,DE,Germany,HE,Hesse,Frankfurt am Main,60311,50.11090087890625,8.682100296020508,2925533.0,Berlin,"[{'code': 'de', 'name': 'German', 'native': 'Deutsch'}]",https://assets.ipstack.com/flags/de.svg,ğŸ‡©ğŸ‡ª,U+1F1E9 U+1F1EA,49,True,,,,
19,https://ec2.eu-west-1.amazonaws.com/ping,AWS,Ireland,Dublin,Ireland,52.95.122.167,"{'ip': '52.95.122.167', 'type': 'ipv4', 'continent_code': 'EU', 'continent_name': 'Europe', 'country_code': 'IE', 'country_name': 'Ireland', 'region_code': 'L', 'region_name': 'Leinster', 'city': 'Dublin', 'zip': None, 'latitude': 53.35388946533203, 'longitude': -6.243330001831055, 'location': {'geoname_id': 2964574, 'capital': 'Dublin', 'languages': [{'code': 'ga', 'name': 'Irish', 'native': 'Gaeilge'}, {'code': 'en', 'name': 'English', 'native': 'English'}], 'country_flag': 'https://assets.ipstack.com/flags/ie.svg', 'country_flag_emoji': 'ğŸ‡®ğŸ‡ª', 'country_flag_emoji_unicode': 'U+1F1EE U+1F1EA', 'calling_code': '353', 'is_eu': True}}",52.95.122.167,ipv4,EU,Europe,IE,Ireland,L,Leinster,Dublin,,53.35388946533203,-6.243330001831055,2964574.0,Dublin,"[{'code': 'ga', 'name': 'Irish', 'native': 'Gaeilge'}, {'code': 'en', 'name': 'English', 'native': 'English'}]",https://assets.ipstack.com/flags/ie.svg,ğŸ‡®ğŸ‡ª,U+1F1EE U+1F1EA,353,True,,,,
20,https://ec2.eu-west-2.amazonaws.com/ping,AWS,London,London,United Kingdom,52.94.56.52,"{'ip': '52.94.56.52', 'type': 'ipv4', 'continent_code': 'EU', 'continent_name': 'Europe', 'country_code': 'GB', 'country_name': 'United Kingdom', 'region_code': 'ENG', 'region_name': 'England', 'city': 'Canning Town', 'zip': None, 'latitude': 51.50019836425781, 'longitude': -0.12620000541210175, 'location': {'geoname_id': 11549407, 'capital': 'London', 'languages': [{'code': 'en', 'name': 'English', 'native': 'English'}], 'country_flag': 'https://assets.ipstack.com/flags/gb.svg', 'country_flag_emoji': 'ğŸ‡¬ğŸ‡§', 'country_flag_emoji_unicode': 'U+1F1EC U+1F1E7', 'calling_code': '44', 'is_eu': True}}",52.94.56.52,ipv4,EU,Europe,GB,United Kingdom,ENG,England,Canning Town,,51.50019836425781,-0.12620000541210175,11549407.0,London,"[{'code': 'en', 'name': 'English', 'native': 'English'}]",https://assets.ipstack.com/flags/gb.svg,ğŸ‡¬ğŸ‡§,U+1F1EC U+1F1E7,44,True,,,,
21,https://ec2.eu-west-3.amazonaws.com/ping,AWS,Paris,Paris,France,52.46.72.50,"{'ip': '52.46.72.50', 'type': 'ipv4', 'continent_code': 'EU', 'continent_name': 'Europe', 'country_code': 'FR', 'country_name': 'France', 'region_code': 'IDF', 'region_name': 'Ãle-de-France', 'city': 'Saint-Ouen', 'zip': '75001', 'latitude': 48.861000061035156, 'longitude': 2.3380000591278076, 'location': {'geoname_id': 2977824, 'capital': 'Paris', 'languages': [{'code': 'fr', 'name': 'French', 'native': 'FranÃ§ais'}], 'country_flag': 'https://assets.ipstack.com/flags/fr.svg', 'country_flag_emoji': 'ğŸ‡«ğŸ‡·', 'country_flag_emoji_unicode': 'U+1F1EB U+1F1F7', 'calling_code': '33', 'is_eu': True}}",52.46.72.50,ipv4,EU,Europe,FR,France,IDF,Ãle-de-France,Saint-Ouen,75001,48.861000061035156,2.3380000591278076,2977824.0,Paris,"[{'code': 'fr', 'name': 'French', 'native': 'FranÃ§ais'}]",https://assets.ipstack.com/flags/fr.svg,ğŸ‡«ğŸ‡·,U+1F1EB U+1F1F7,33,True,,,,
22,https://ec2.eu-north-1.amazonaws.com/ping,AWS,Stockholm,Stockholm,Sweden,52.46.192.128,"{'ip': '52.46.192.128', 'type': 'ipv4', 'continent_code': 'EU', 'continent_name': 'Europe', 'country_code': 'SE', 'country_name': 'Sweden', 'region_code': 'AB', 'region_name': 'Stockholm', 'city': 'Stockholm', 'zip': '118 58', 'latitude': 59.293609619140625, 'longitude': 18.037790298461914, 'location': {'geoname_id': 2673730, 'capital': 'Stockholm', 'languages': [{'code': 'sv', 'name': 'Swedish', 'native': 'Svenska'}], 'country_flag': 'https://assets.ipstack.com/flags/se.svg', 'country_flag_emoji': 'ğŸ‡¸ğŸ‡ª', 'country_flag_emoji_unicode': 'U+1F1F8 U+1F1EA', 'calling_code': '46', 'is_eu': True}}",52.46.192.128,ipv4,EU,Europe,SE,Sweden,AB,Stockholm,Stockholm,118 58,59.293609619140625,18.037790298461914,2673730.0,Stockholm,"[{'code': 'sv', 'name': 'Swedish', 'native': 'Svenska'}]",https://assets.ipstack.com/flags/se.svg,ğŸ‡¸ğŸ‡ª,U+1F1F8 U+1F1EA,46,True,,,,
23,https://ec2.me-south-1.amazonaws.com/ping,AWS,Bahrain,Manama,Bahrain,99.82.128.102,"{'ip': '99.82.128.102', 'type': 'ipv4', 'continent_code': 'AS', 'continent_name': 'Asia', 'country_code': 'BH', 'country_name': 'Bahrain', 'region_code': '13', 'region_name': 'Manama', 'city': 'Manama', 'zip': None, 'latitude': 26.227779388427734, 'longitude': 50.584720611572266, 'location': {'geoname_id': 290340, 'capital': 'Manama', 'languages': [{'code': 'ar', 'name': 'Arabic', 'native': 'Ø§Ù„Ø¹Ø±Ø¨ÙŠØ©'}], 'country_flag': 'https://assets.ipstack.com/flags/bh.svg', 'country_flag_emoji': 'ğŸ‡§ğŸ‡­', 'country_flag_emoji_unicode': 'U+1F1E7 U+1F1ED', 'calling_code': '973', 'is_eu': False}}",99.82.128.102,ipv4,AS,Asia,BH,Bahrain,13,Manama,Manama,,26.227779388427734,50.584720611572266,290340.0,Manama,"[{'code': 'ar', 'name': 'Arabic', 'native': 'Ø§Ù„Ø¹Ø±Ø¨ÙŠØ©'}]",https://assets.ipstack.com/flags/bh.svg,ğŸ‡§ğŸ‡­,U+1F1E7 U+1F1ED,973,False,,,,
24,https://ec2.af-south-1.amazonaws.com/ping,AWS,Cape Town,Cape Town,South Africa,99.78.128.100,"{'ip': '99.78.128.100', 'type': 'ipv4', 'continent_code': 'AF', 'continent_name': 'Africa', 'country_code': 'ZA', 'country_name': 'South Africa', 'region_code': 'WC', 'region_name': 'Western Cape', 'city': 'Cape Town', 'zip': '8001', 'latitude': -33.92490005493164, 'longitude': 18.424100875854492, 'location': {'geoname_id': 3369157, 'capital': 'Pretoria', 'languages': [{'code': 'af', 'name': 'Afrikaans', 'native': 'Afrikaans'}, {'code': 'en', 'name': 'English', 'native': 'English'}, {'code': 'nr', 'name': 'South Ndebele', 'native': 'isiNdebele'}, {'code': 'st', 'name': 'Southern Sotho', 'native': 'Sesotho'}, {'code': 'ss', 'name': 'Swati', 'native': 'SiSwati'}, {'code': 'tn', 'name': 'Tswana', 'native': 'Setswana'}, {'code': 'ts', 'name': 'Tsonga', 'native': 'Xitsonga'}, {'code': 've', 'name': 'Venda', 'native': 'Tshivená¸“a'}, {'code': 'xh', 'name': 'Xhosa', 'native': 'isiXhosa'}, {'code': 'zu', 'name': 'Zulu', 'native': 'isiZulu'}], 'country_flag': 'https://assets.ipstack.com/flags/za.svg', 'country_flag_emoji': 'ğŸ‡¿ğŸ‡¦', 'country_flag_emoji_unicode': 'U+1F1FF U+1F1E6', 'calling_code': '27', 'is_eu': False}}",99.78.128.100,ipv4,AF,Africa,ZA,South Africa,WC,Western Cape,Cape Town,8001,-33.92490005493164,18.424100875854492,3369157.0,Pretoria,"[{'code': 'af', 'name': 'Afrikaans', 'native': 'Afrikaans'}, {'code': 'en', 'name': 'English', 'native': 'English'}, {'code': 'nr', 'name': 'South Ndebele', 'native': 'isiNdebele'}, {'code': 'st', 'name': 'Southern Sotho', 'native': 'Sesotho'}, {'code': 'ss', 'name': 'Swati', 'native': 'SiSwati'}, {'code': 'tn', 'name': 'Tswana', 'native': 'Setswana'}, {'code': 'ts', 'name': 'Tsonga', 'native': 'Xitsonga'}, {'code': 've', 'name': 'Venda', 'native': 'Tshivená¸“a'}, {'code': 'xh', 'name': 'Xhosa', 'native': 'isiXhosa'}, {'code': 'zu', 'name': 'Zulu', 'native': 'isiZulu'}]",https://assets.ipstack.com/flags/za.svg,ğŸ‡¿ğŸ‡¦,U+1F1FF U+1F1E6,27,False,,,,
26,https://ec2.sa-east-1.amazonaws.com/ping,AWS,SÃ£o Paulo,SÃ£o Paulo,Brazil,177.72.245.165,"{'ip': '177.72.245.165', 'type': 'ipv4', 'continent_code': 'SA', 'continent_name': 'South America', 'country_code': 'BR', 'country_name': 'Brazil', 'region_code': 'SP', 'region_name': 'SÃ£o Paulo', 'city': 'SÃ£o Paulo', 'zip': '01001-000', 'latitude': -23.547500610351562, 'longitude': -46.6361083984375, 'location': {'geoname_id': 3448439, 'capital': 'BrasÃ­lia', 'languages': [{'code': 'pt', 'name': 'Portuguese', 'native': 'PortuguÃªs'}], 'country_flag': 'https://assets.ipstack.com/flags/br.svg', 'country_flag_emoji': 'ğŸ‡§ğŸ‡·', 'country_flag_emoji_unicode': 'U+1F1E7 U+1F1F7', 'calling_code': '55', 'is_eu': False}}",177.72.245.165,ipv4,SA,South America,BR,Brazil,SP,SÃ£o Paulo,SÃ£o Paulo,01001-000,-23.547500610351562,-46.6361083984375,3448439.0,BrasÃ­lia,"[{'code': 'pt', 'name': 'Portuguese', 'native': 'PortuguÃªs'}]",https://assets.ipstack.com/flags/br.svg,ğŸ‡§ğŸ‡·,U+1F1E7 U+1F1F7,55,False,,,,
28,https://feitsui-bom.oss-ap-south-1.aliyuncs.com/ping.html,Alibaba,Mumbai,Mumbai,India,149.129.143.68,"{'ip': '149.129.143.68', 'type': 'ipv4', 'continent_code': 'AS', 'continent_name': 'Asia', 'country_code': 'IN', 'country_name': 'India', 'region_code': 'MH', 'region_name': 'Maharashtra', 'city': 'Mumbai', 'zip': '400051', 'latitude': 19.058700561523438, 'longitude': 72.84439849853516, 'location': {'geoname_id': 1275339, 'capital': 'New Delhi', 'languages': [{'code': 'hi', 'name': 'Hindi', 'native': 'à¤¹à¤¿à¤¨à¥à¤¦à¥€'}, {'code': 'en', 'name': 'English', 'native': 'English'}], 'country_flag': 'https://assets.ipstack.com/flags/in.svg', 'country_flag_emoji': 'ğŸ‡®ğŸ‡³', 'country_flag_emoji_unicode': 'U+1F1EE U+1F1F3', 'calling_code': '91', 'is_eu': False}}",149.129.143.68,ipv4,AS,Asia,IN,India,MH,Maharashtra,Mumbai,400051,19.058700561523438,72.84439849853516,1275339.0,New Delhi,"[{'code': 'hi', 'name': 'Hindi', 'native': 'à¤¹à¤¿à¤¨à¥à¤¦à¥€'}, {'code': 'en', 'name': 'English', 'native': 'English'}]",https://assets.ipstack.com/flags/in.svg,ğŸ‡®ğŸ‡³,U+1F1EE U+1F1F3,91,False,,,,
29,https://feitsui-kul.oss-ap-southeast-3.aliyuncs.com/ping.html,Alibaba,Kuala Lumpur,Kuala Lumpur,Malaysia,47.254.218.26,"{'ip': '47.254.218.26', 'type': 'ipv4', 'continent_code': 'AS', 'continent_name': 'Asia', 'country_code': 'MY', 'country_name': 'Malaysia', 'region_code': '14', 'region_name': 'Kuala Lumpur', 'city': 'Kuala Lumpur', 'zip': '50000', 'latitude': 3.1389999389648438, 'longitude': 101.68689727783203, 'location': {'geoname_id': 1735161, 'capital': 'Kuala Lumpur', 'languages': [{'code': 'ms', 'name': 'Malay', 'native': 'Bahasa Melayu'}], 'country_flag': 'https://assets.ipstack.com/flags/my.svg', 'country_flag_emoji': 'ğŸ‡²ğŸ‡¾', 'country_flag_emoji_unicode': 'U+1F1F2 U+1F1FE', 'calling_code': '60', 'is_eu': False}}",47.254.218.26,ipv4,AS,Asia,MY,Malaysia,14,Kuala Lumpur,Kuala Lumpur,50000,3.1389999389648438,101.68689727783203,1735161.0,Kuala Lumpur,"[{'code': 'ms', 'name': 'Malay', 'native': 'Bahasa Melayu'}]",https://assets.ipstack.com/flags/my.svg,ğŸ‡²ğŸ‡¾,U+1F1F2 U+1F1FE,60,False,,,,
30,https://feitsui-silicon-valley.oss-us-west-1.aliyuncs.com/ping.html,Alibaba,Silicon Valley,San Jose,United States,47.254.114.114,"{'ip': '47.254.114.114', 'type': 'ipv4', 'continent_code': 'NA', 'continent_name': 'North America', 'country_code': 'US', 'country_name': 'United States', 'region_code': 'CA', 'region_name': 'California', 'city': 'San Mateo', 'zip': '94402', 'latitude': 37.539791107177734, 'longitude': -122.32969665527344, 'location': {'geoname_id': 5392423, 'capital': 'Washington D.C.', 'languages': [{'code': 'en', 'name': 'English', 'native': 'English'}], 'country_flag': 'https://assets.ipstack.com/flags/us.svg', 'country_flag_emoji': 'ğŸ‡ºğŸ‡¸', 'country_flag_emoji_unicode': 'U+1F1FA U+1F1F8', 'calling_code': '1', 'is_eu': False}}",47.254.114.114,ipv4,NA,North America,US,United States,CA,California,San Mateo,94402,37.539791107177734,-122.32969665527344,5392423.0,Washington D.C.,"[{'code': 'en', 'name': 'English', 'native': 'English'}]",https://assets.ipstack.com/flags/us.svg,ğŸ‡ºğŸ‡¸,U+1F1FA U+1F1F8,1,False,,,,
31,https://feitsui-cgk.oss-ap-southeast-5.aliyuncs.com/ping.html,Alibaba,Jakarta,Jakarta,Indonesia,149.129.200.34,"{'ip': '149.129.200.34', 'type': 'ipv4', 'continent_code': 'AS', 'continent_name': 'Asia', 'country_code': 'ID', 'country_name': 'Indonesia', 'region_code': 'JK', 'region_name': 'Jakarta', 'city': 'Jakarta', 'zip': '12110', 'latitude': -6.235899925231934, 'longitude': 106.8031005859375, 'location': {'geoname_id': 1642911, 'capital': 'Jakarta', 'languages': [{'code': 'id', 'name': 'Indonesian', 'native': 'Bahasa Indonesia'}], 'country_flag': 'https://assets.ipstack.com/flags/id.svg', 'country_flag_emoji': 'ğŸ‡®ğŸ‡©', 'country_flag_emoji_unicode': 'U+1F1EE U+1F1E9', 'calling_code': '62', 'is_eu': False}}",149.129.200.34,ipv4,AS,Asia,ID,Indonesia,JK,Jakarta,Jakarta,12110,-6.235899925231934,106.8031005859375,1642911.0,Jakarta,"[{'code': 'id', 'name': 'Indonesian', 'native': 'Bahasa Indonesia'}]",https://assets.ipstack.com/flags/id.svg,ğŸ‡®ğŸ‡©,U+1F1EE U+1F1E9,62,False,,,,
32,https://feitsui-sin.oss-ap-southeast-1.aliyuncs.com/ping.html,Alibaba,Singapore,Singapore,Singapore,161.117.155.93,"{'ip': '161.117.155.93', 'type': 'ipv4', 'continent_code': 'AS', 'continent_name': 'Asia', 'country_code': 'SG', 'country_name': 'Singapore', 'region_code': '01', 'region_name': 'Central Singapore', 'city': 'Singapore', 'zip': '247964', 'latitude': 1.287950038909912, 'longitude': 103.8517837524414, 'location': {'geoname_id': 1880252, 'capital': 'Singapore', 'languages': [{'code': 'en', 'name': 'English', 'native': 'English'}, {'code': 'ms', 'name': 'Malay', 'native': 'Bahasa Melayu'}, {'code': 'ta', 'name': 'Tamil', 'native': 'à®¤à®®à®¿à®´à¯'}, {'code': 'zh', 'name': 'Chinese', 'native': 'ä¸­æ–‡'}], 'country_flag': 'https://assets.ipstack.com/flags/sg.svg', 'country_flag_emoji': 'ğŸ‡¸ğŸ‡¬', 'country_flag_emoji_unicode': 'U+1F1F8 U+1F1EC', 'calling_code': '65', 'is_eu': False}}",161.117.155.93,ipv4,AS,Asia,SG,Singapore,01,Central Singapore,Singapore,247964,1.287950038909912,103.8517837524414,1880252.0,Singapore,"[{'code': 'en', 'name': 'English', 'native': 'English'}, {'code': 'ms', 'name': 'Malay', 'native': 'Bahasa Melayu'}, {'code': 'ta', 'name': 'Tamil', 'native': 'à®¤à®®à®¿à®´à¯'}, {'code': 'zh', 'name': 'Chinese', 'native': 'ä¸­æ–‡'}]",https://assets.ipstack.com/flags/sg.svg,ğŸ‡¸ğŸ‡¬,U+1F1F8 U+1F1EC,65,False,,,,
33,https://feitsui-mnl.oss-ap-southeast-6.aliyuncs.com/ping.html,Alibaba,Manila,Manila,Philippines,8.212.139.140,"{'ip': '8.212.139.140', 'type': 'ipv4', 'continent_code': 'AS', 'continent_name': 'Asia', 'country_code': 'SG', 'country_name': 'Singapore', 'region_code': '01', 'region_name': 'Central Singapore', 'city': 'Singapore', 'zip': '247964', 'latitude': 1.287950038909912, 'longitude': 103.8517837524414, 'location': {'geoname_id': 1880252, 'capital': 'Singapore', 'languages': [{'code': 'en', 'name': 'English', 'native': 'English'}, {'code': 'ms', 'name': 'Malay', 'native': 'Bahasa Melayu'}, {'code': 'ta', 'name': 'Tamil', 'native': 'à®¤à®®à®¿à®´à¯'}, {'code': 'zh', 'name': 'Chinese', 'native': 'ä¸­æ–‡'}], 'country_flag': 'https://assets.ipstack.com/flags/sg.svg', 'country_flag_emoji': 'ğŸ‡¸ğŸ‡¬', 'country_flag_emoji_unicode': 'U+1F1F8 U+1F1EC', 'calling_code': '65', 'is_eu': False}}",8.212.139.140,ipv4,AS,Asia,SG,Singapore,01,Central Singapore,Singapore,247964,1.287950038909912,103.8517837524414,1880252.0,Singapore,"[{'code': 'en', 'name': 'English', 'native': 'English'}, {'code': 'ms', 'name': 'Malay', 'native': 'Bahasa Melayu'}, {'code': 'ta', 'name': 'Tamil', 'native': 'à®¤à®®à®¿à®´à¯'}, {'code': 'zh', 'name': 'Chinese', 'native': 'ä¸­æ–‡'}]",https://assets.ipstack.com/flags/sg.svg,ğŸ‡¸ğŸ‡¬,U+1F1F8 U+1F1EC,65,False,,,,
34,https://feitsui-syd.oss-ap-southeast-2.aliyuncs.com/ping.html,Alibaba,Sydney,Sydney,Australia,47.74.79.155,"{'ip': '47.74.79.155', 'type': 'ipv4', 'continent_code': 'OC', 'continent_name': 'Oceania', 'country_code': 'AU', 'country_name': 'Australia', 'region_code': 'VIC', 'region_name': 'Victoria', 'city': 'Melbourne', 'zip': '3000', 'latitude': -37.81425094604492, 'longitude': 144.96316528320312, 'location': {'geoname_id': 2158177, 'capital': 'Canberra', 'languages': [{'code': 'en', 'name': 'English', 'native': 'English'}], 'country_flag': 'https://assets.ipstack.com/flags/au.svg', 'country_flag_emoji': 'ğŸ‡¦ğŸ‡º', 'country_flag_emoji_unicode': 'U+1F1E6 U+1F1FA', 'calling_code': '61', 'is_eu': False}}",47.74.79.155,ipv4,OC,Oceania,AU,Australia,VIC,Victoria,Melbourne,3000,-37.81425094604492,144.96316528320312,2158177.0,Canberra,"[{'code': 'en', 'name': 'English', 'native': 'English'}]",https://assets.ipstack.com/flags/au.svg,ğŸ‡¦ğŸ‡º,U+1F1E6 U+1F1FA,61,False,,,,
35,https://feitsui-bkk.oss-ap-southeast-7.aliyuncs.com/ping.html,Alibaba,Bangkok,Bangkok,Thailand,8.213.160.102,"{'ip': '8.213.160.102', 'type': 'ipv4', 'continent_code': 'AS', 'continent_name': 'Asia', 'country_code': 'SG', 'country_name': 'Singapore', 'region_code': '01', 'region_name': 'Central Singapore', 'city': 'Singapore', 'zip': '247964', 'latitude': 1.287950038909912, 'longitude': 103.8517837524414, 'location': {'geoname_id': 1880252, 'capital': 'Singapore', 'languages': [{'code': 'en', 'name': 'English', 'native': 'English'}, {'code': 'ms', 'name': 'Malay', 'native': 'Bahasa Melayu'}, {'code': 'ta', 'name': 'Tamil', 'native': 'à®¤à®®à®¿à®´à¯'}, {'code': 'zh', 'name': 'Chinese', 'native': 'ä¸­æ–‡'}], 'country_flag': 'https://assets.ipstack.com/flags/sg.svg', 'country_flag_emoji': 'ğŸ‡¸ğŸ‡¬', 'country_flag_emoji_unicode': 'U+1F1F8 U+1F1EC', 'calling_code': '65', 'is_eu': False}}",8.213.160.102,ipv4,AS,Asia,SG,Singapore,01,Central Singapore,Singapore,247964,1.287950038909912,103.8517837524414,1880252.0,Singapore,"[{'code': 'en', 'name': 'English', 'native': 'English'}, {'code': 'ms', 'name': 'Malay', 'native': 'Bahasa Melayu'}, {'code': 'ta', 'name': 'Tamil', 'native': 'à®¤à®®à®¿à®´à¯'}, {'code': 'zh', 'name': 'Chinese', 'native': 'ä¸­æ–‡'}]",https://assets.ipstack.com/flags/sg.svg,ğŸ‡¸ğŸ‡¬,U+1F1F8 U+1F1EC,65,False,,,,
36,https://feitsui-dxb.oss-me-east-1.aliyuncs.com/ping.html,Alibaba,Dubai,Dubai,United Arab Emirates,47.91.99.18,"{'ip': '47.91.99.18', 'type': 'ipv4', 'continent_code': 'AS', 'continent_name': 'Asia', 'country_code': 'AE', 'country_name': 'United Arab Emirates', 'region_code': 'SH', 'region_name': 'Sharjah', 'city': 'Sharjah', 'zip': None, 'latitude': 25.268510818481445, 'longitude': 55.310699462890625, 'location': {'geoname_id': 292672, 'capital': 'Abu Dhabi', 'languages': [{'code': 'ar', 'name': 'Arabic', 'native': 'Ø§Ù„Ø¹Ø±Ø¨ÙŠØ©'}], 'country_flag': 'https://assets.ipstack.com/flags/ae.svg', 'country_flag_emoji': 'ğŸ‡¦ğŸ‡ª', 'country_flag_emoji_unicode': 'U+1F1E6 U+1F1EA', 'calling_code': '971', 'is_eu': False}}",47.91.99.18,ipv4,AS,Asia,AE,United Arab Emirates,SH,Sharjah,Sharjah,,25.268510818481445,55.310699462890625,292672.0,Abu Dhabi,"[{'code': 'ar', 'name': 'Arabic', 'native': 'Ø§Ù„Ø¹Ø±Ø¨ÙŠØ©'}]",https://assets.ipstack.com/flags/ae.svg,ğŸ‡¦ğŸ‡ª,U+1F1E6 U+1F1EA,971,False,,,,
37,https://feitsui-icn.oss-ap-northeast-2.aliyuncs.com/ping.html,Alibaba,Seoul,Seoul,South Korea,149.129.12.59,"{'ip': '149.129.12.59', 'type': 'ipv4', 'continent_code': 'AS', 'continent_name': 'Asia', 'country_code': 'KR', 'country_name': 'South Korea', 'region_code': '41', 'region_name': 'Gyeonggi-do', 'city': 'Seongnam-si', 'zip': '135-010', 'latitude': 37.51216125488281, 'longitude': 127.031982421875, 'location': {'geoname_id': 1897000, 'capital': 'Seoul', 'languages': [{'code': 'ko', 'name': 'Korean', 'native': 'í•œêµ­ì–´'}], 'country_flag': 'https://assets.ipstack.com/flags/kr.svg', 'country_flag_emoji': 'ğŸ‡°ğŸ‡·', 'country_flag_emoji_unicode': 'U+1F1F0 U+1F1F7', 'calling_code': '82', 'is_eu': False}}",149.129.12.59,ipv4,AS,Asia,KR,South Korea,41,Gyeonggi-do,Seongnam-si,135-010,37.51216125488281,127.031982421875,1897000.0,Seoul,"[{'code': 'ko', 'name': 'Korean', 'native': 'í•œêµ­ì–´'}]",https://assets.ipstack.com/flags/kr.svg,ğŸ‡°ğŸ‡·,U+1F1F0 U+1F1F7,82,False,,,,
38,https://feitsui-fra.oss-eu-central-1.aliyuncs.com/ping.html,Alibaba,Frankfurt,Frankfurt,Germany,47.254.186.91,"{'ip': '47.254.186.91', 'type': 'ipv4', 'continent_code': 'EU', 'continent_name': 'Europe', 'country_code': 'DE', 'country_name': 'Germany', 'region_code': 'HE', 'region_name': 'Hesse', 'city': 'Frankfurt am Main', 'zip': '60311', 'latitude': 50.11090087890625, 'longitude': 8.682100296020508, 'location': {'geoname_id': 2925533, 'capital': 'Berlin', 'languages': [{'code': 'de', 'name': 'German', 'native': 'Deutsch'}], 'country_flag': 'https://assets.ipstack.com/flags/de.svg', 'country_flag_emoji': 'ğŸ‡©ğŸ‡ª', 'country_flag_emoji_unicode': 'U+1F1E9 U+1F1EA', 'calling_code': '49', 'is_eu': True}}",47.254.186.91,ipv4,EU,Europe,DE,Germany,HE,Hesse,Frankfurt am Main,60311,50.11090087890625,8.682100296020508,2925533.0,Berlin,"[{'code': 'de', 'name': 'German', 'native': 'Deutsch'}]",https://assets.ipstack.com/flags/de.svg,ğŸ‡©ğŸ‡ª,U+1F1E9 U+1F1EA,49,True,,,,
39,https://feitsui-virginia.oss-us-east-1.aliyuncs.com/ping.html,Alibaba,Virginia,Ashburn,United States,47.253.30.167,"{'ip': '47.253.30.167', 'type': 'ipv4', 'continent_code': 'NA', 'continent_name': 'North America', 'country_code': 'US', 'country_name': 'United States', 'region_code': 'CA', 'region_name': 'California', 'city': 'San Mateo', 'zip': '94402', 'latitude': 37.539791107177734, 'longitude': -122.32969665527344, 'location': {'geoname_id': 5392423, 'capital': 'Washington D.C.', 'languages': [{'code': 'en', 'name': 'English', 'native': 'English'}], 'country_flag': 'https://assets.ipstack.com/flags/us.svg', 'country_flag_emoji': 'ğŸ‡ºğŸ‡¸', 'country_flag_emoji_unicode': 'U+1F1FA U+1F1F8', 'calling_code': '1', 'is_eu': False}}",47.253.30.167,ipv4,NA,North America,US,United States,CA,California,San Mateo,94402,37.539791107177734,-122.32969665527344,5392423.0,Washington D.C.,"[{'code': 'en', 'name': 'English', 'native': 'English'}]",https://assets.ipstack.com/flags/us.svg,ğŸ‡ºğŸ‡¸,U+1F1FA U+1F1F8,1,False,,,,
40,https://feitsui-nrt.oss-ap-northeast-1.aliyuncs.com/ping.html,Alibaba,Tokyo,Tokyo,Japan,47.245.49.2,"{'ip': '47.245.49.2', 'type': 'ipv4', 'continent_code': 'AS', 'continent_name': 'Asia', 'country_code': 'JP', 'country_name': 'Japan', 'region_code': '13', 'region_name': 'Tokyo', 'city': 'Tokyo', 'zip': '162-0843', 'latitude': 35.69628143310547, 'longitude': 139.73855590820312, 'location': {'geoname_id': 1850147, 'capital': 'Tokyo', 'languages': [{'code': 'ja', 'name': 'Japanese', 'native': 'æ—¥æœ¬èª'}], 'country_flag': 'https://assets.ipstack.com/flags/jp.svg', 'country_flag_emoji': 'ğŸ‡¯ğŸ‡µ', 'country_flag_emoji_unicode': 'U+1F1EF U+1F1F5', 'calling_code': '81', 'is_eu': False}}",47.245.49.2,ipv4,AS,Asia,JP,Japan,13,Tokyo,Tokyo,162-0843,35.69628143310547,139.73855590820312,1850147.0,Tokyo,"[{'code': 'ja', 'name': 'Japanese', 'native': 'æ—¥æœ¬èª'}]",https://assets.ipstack.com/flags/jp.svg,ğŸ‡¯ğŸ‡µ,U+1F1EF U+1F1F5,81,False,,,,
41,https://feitsui-lhr.oss-eu-west-1.aliyuncs.com/ping.html,Alibaba,London,London,United Kingdom,8.208.40.164,"{'ip': '8.208.40.164', 'type': 'ipv4', 'continent_code': 'EU', 'continent_name': 'Europe', 'country_code': 'GB', 'country_name': 'United Kingdom', 'region_code': 'ENG', 'region_name': 'England', 'city': 'Streatham', 'zip': 'SW9', 'latitude': 51.45832824707031, 'longitude': -0.11416999995708466, 'location': {'geoname_id': 2636675, 'capital': 'London', 'languages': [{'code': 'en', 'name': 'English', 'native': 'English'}], 'country_flag': 'https://assets.ipstack.com/flags/gb.svg', 'country_flag_emoji': 'ğŸ‡¬ğŸ‡§', 'country_flag_emoji_unicode': 'U+1F1EC U+1F1E7', 'calling_code': '44', 'is_eu': True}}",8.208.40.164,ipv4,EU,Europe,GB,United Kingdom,ENG,England,Streatham,SW9,51.45832824707031,-0.11416999995708466,2636675.0,London,"[{'code': 'en', 'name': 'English', 'native': 'English'}]",https://assets.ipstack.com/flags/gb.svg,ğŸ‡¬ğŸ‡§,U+1F1EC U+1F1E7,44,True,,,,
42,https://feitsui-hkg.oss-cn-hongkong.aliyuncs.com/ping.html,Alibaba,"Hong Kong, China",Hong Kong,China,47.75.19.16,"{'ip': '47.75.19.16', 'type': 'ipv4', 'continent_code': 'AS', 'continent_name': 'Asia', 'country_code': 'HK', 'country_name': 'Hong Kong SAR China', 'region_code': 'HSO', 'region_name': 'Southern', 'city': 'Aberdeen', 'zip': None, 'latitude': 22.248310089111328, 'longitude': 114.15239715576172, 'location': {'geoname_id': 1819757, 'capital': 'City of Victoria', 'languages': [{'code': 'zh', 'name': 'Chinese', 'native': 'ä¸­æ–‡'}, {'code': 'en', 'name': 'English', 'native': 'English'}], 'country_flag': 'https://assets.ipstack.com/flags/hk.svg', 'country_flag_emoji': 'ğŸ‡­ğŸ‡°', 'country_flag_emoji_unicode': 'U+1F1ED U+1F1F0', 'calling_code': '852', 'is_eu': False}}",47.75.19.16,ipv4,AS,Asia,HK,Hong Kong SAR China,HSO,Southern,Aberdeen,,22.248310089111328,114.15239715576172,1819757.0,City of Victoria,"[{'code': 'zh', 'name': 'Chinese', 'native': 'ä¸­æ–‡'}, {'code': 'en', 'name': 'English', 'native': 'English'}]",https://assets.ipstack.com/flags/hk.svg,ğŸ‡­ğŸ‡°,U+1F1ED U+1F1F0,852,False,,,,
43,https://wa-us-ping.vultr.com,Vultr,WA,Seattle,United States,108.61.194.105,"{'ip': '108.61.194.105', 'type': 'ipv4', 'continent_code': 'NA', 'continent_name': 'North America', 'country_code': 'US', 'country_name': 'United States', 'region_code': 'WA', 'region_name': 'Washington', 'city': 'Kent', 'zip': '98030', 'latitude': 47.36235809326172, 'longitude': -122.19828033447266, 'location': {'geoname_id': 5799625, 'capital': 'Washington D.C.', 'languages': [{'code': 'en', 'name': 'English', 'native': 'English'}], 'country_flag': 'https://assets.ipstack.com/flags/us.svg', 'country_flag_emoji': 'ğŸ‡ºğŸ‡¸', 'country_flag_emoji_unicode': 'U+1F1FA U+1F1F8', 'calling_code': '1', 'is_eu': False}}",108.61.194.105,ipv4,NA,North America,US,United States,WA,Washington,Kent,98030,47.36235809326172,-122.19828033447266,5799625.0,Washington D.C.,"[{'code': 'en', 'name': 'English', 'native': 'English'}]",https://assets.ipstack.com/flags/us.svg,ğŸ‡ºğŸ‡¸,U+1F1FA U+1F1F8,1,False,,,,
44,https://lax-ca-us-ping.vultr.com,Vultr,CA,Los Angeles,United States,108.61.219.200,"{'ip': '108.61.219.200', 'type': 'ipv4', 'continent_code': 'NA', 'continent_name': 'North America', 'country_code': 'US', 'country_name': 'United States', 'region_code': 'CA', 'region_name': 'California', 'city': 'Los Angeles', 'zip': '90013', 'latitude': 34.04759979248047, 'longitude': -118.29226684570312, 'location': {'geoname_id': 5368361, 'capital': 'Washington D.C.', 'languages': [{'code': 'en', 'name': 'English', 'native': 'English'}], 'country_flag': 'https://assets.ipstack.com/flags/us.svg', 'country_flag_emoji': 'ğŸ‡ºğŸ‡¸', 'country_flag_emoji_unicode': 'U+1F1FA U+1F1F8', 'calling_code': '1', 'is_eu': False}}",108.61.219.200,ipv4,NA,North America,US,United States,CA,California,Los Angeles,90013,34.04759979248047,-118.29226684570312,5368361.0,Washington D.C.,"[{'code': 'en', 'name': 'English', 'native': 'English'}]",https://assets.ipstack.com/flags/us.svg,ğŸ‡ºğŸ‡¸,U+1F1FA U+1F1F8,1,False,,,,
45,https://sjo-ca-us-ping.vultr.com,Vultr,CA,Silicon Valley,United States,104.156.230.107,"{'ip': '104.156.230.107', 'type': 'ipv4', 'continent_code': 'NA', 'continent_name': 'North America', 'country_code': 'US', 'country_name': 'United States', 'region_code': 'CA', 'region_name': 'California', 'city': 'Santa Clara', 'zip': '95050', 'latitude': 37.351478576660156, 'longitude': -121.95082092285156, 'location': {'geoname_id': 5393015, 'capital': 'Washington D.C.', 'languages': [{'code': 'en', 'name': 'English', 'native': 'English'}], 'country_flag': 'https://assets.ipstack.com/flags/us.svg', 'country_flag_emoji': 'ğŸ‡ºğŸ‡¸', 'country_flag_emoji_unicode': 'U+1F1FA U+1F1F8', 'calling_code': '1', 'is_eu': False}}",104.156.230.107,ipv4,NA,North America,US,United States,CA,California,Santa Clara,95050,37.351478576660156,-121.95082092285156,5393015.0,Washington D.C.,"[{'code': 'en', 'name': 'English', 'native': 'English'}]",https://assets.ipstack.com/flags/us.svg,ğŸ‡ºğŸ‡¸,U+1F1FA U+1F1F8,1,False,,,,
46,https://fl-us-ping.vultr.com,Vultr,FL,Miami,United States,104.156.244.232,"{'ip': '104.156.244.232', 'type': 'ipv4', 'continent_code': 'NA', 'continent_name': 'North America', 'country_code': 'US', 'country_name': 'United States', 'region_code': 'FL', 'region_name': 'Florida', 'city': 'Flagami', 'zip': '33144', 'latitude': 25.762859344482422, 'longitude': -80.31195831298828, 'location': {'geoname_id': 4155529, 'capital': 'Washington D.C.', 'languages': [{'code': 'en', 'name': 'English', 'native': 'English'}], 'country_flag': 'https://assets.ipstack.com/flags/us.svg', 'country_flag_emoji': 'ğŸ‡ºğŸ‡¸', 'country_flag_emoji_unicode': 'U+1F1FA U+1F1F8', 'calling_code': '1', 'is_eu': False}}",104.156.244.232,ipv4,NA,North America,US,United States,FL,Florida,Flagami,33144,25.762859344482422,-80.31195831298828,4155529.0,Washington D.C.,"[{'code': 'en', 'name': 'English', 'native': 'English'}]",https://assets.ipstack.com/flags/us.svg,ğŸ‡ºğŸ‡¸,U+1F1FA U+1F1F8,1,False,,,,
47,https://ga-us-ping.vultr.com,Vultr,GA,Atlanta,United States,108.61.193.166,"{'ip': '108.61.193.166', 'type': 'ipv4', 'continent_code': 'NA', 'continent_name': 'North America', 'country_code': 'US', 'country_name': 'United States', 'region_code': 'GA', 'region_name': 'Georgia', 'city': 'Atlanta', 'zip': '30309', 'latitude': 33.798458099365234, 'longitude': -84.3882827758789, 'location': {'geoname_id': 4180439, 'capital': 'Washington D.C.', 'languages': [{'code': 'en', 'name': 'English', 'native': 'English'}], 'country_flag': 'https://assets.ipstack.com/flags/us.svg', 'country_flag_emoji': 'ğŸ‡ºğŸ‡¸', 'country_flag_emoji_unicode': 'U+1F1FA U+1F1F8', 'calling_code': '1', 'is_eu': False}}",108.61.193.166,ipv4,NA,North America,US,United States,GA,Georgia,Atlanta,30309,33.798458099365234,-84.3882827758789,4180439.0,Washington D.C.,"[{'code': 'en', 'name': 'English', 'native': 'English'}]",https://assets.ipstack.com/flags/us.svg,ğŸ‡ºğŸ‡¸,U+1F1FA U+1F1F8,1,False,,,,
48,https://hon-hi-us-ping.vultr.com,Vultr,HI,Honolulu,United States,208.72.154.76,"{'ip': '208.72.154.76', 'type': 'ipv4', 'continent_code': 'NA', 'continent_name': 'North America', 'country_code': 'US', 'country_name': 'United States', 'region_code': 'HI', 'region_name': 'Hawaii', 'city': 'Honolulu', 'zip': '96822', 'latitude': 21.306900024414062, 'longitude': -157.85830688476562, 'location': {'geoname_id': 5856195, 'capital': 'Washington D.C.', 'languages': [{'code': 'en', 'name': 'English', 'native': 'English'}], 'country_flag': 'https://assets.ipstack.com/flags/us.svg', 'country_flag_emoji': 'ğŸ‡ºğŸ‡¸', 'country_flag_emoji_unicode': 'U+1F1FA U+1F1F8', 'calling_code': '1', 'is_eu': False}}",208.72.154.76,ipv4,NA,North America,US,United States,HI,Hawaii,Honolulu,96822,21.306900024414062,-157.85830688476562,5856195.0,Washington D.C.,"[{'code': 'en', 'name': 'English', 'native': 'English'}]",https://assets.ipstack.com/flags/us.svg,ğŸ‡ºğŸ‡¸,U+1F1FA U+1F1F8,1,False,,,,
49,https://il-us-ping.vultr.com,Vultr,IL,Chicago,United States,107.191.51.12,"{'ip': '107.191.51.12', 'type': 'ipv4', 'continent_code': 'NA', 'continent_name': 'North America', 'country_code': 'US', 'country_name': 'United States', 'region_code': 'IL', 'region_name': 'Illinois', 'city': 'Elk Grove Village', 'zip': '60007', 'latitude': 42.00299835205078, 'longitude': -87.99600219726562, 'location': {'geoname_id': 4890925, 'capital': 'Washington D.C.', 'languages': [{'code': 'en', 'name': 'English', 'native': 'English'}], 'country_flag': 'https://assets.ipstack.com/flags/us.svg', 'country_flag_emoji': 'ğŸ‡ºğŸ‡¸', 'country_flag_emoji_unicode': 'U+1F1FA U+1F1F8', 'calling_code': '1', 'is_eu': False}}",107.191.51.12,ipv4,NA,North America,US,United States,IL,Illinois,Elk Grove Village,60007,42.00299835205078,-87.99600219726562,4890925.0,Washington D.C.,"[{'code': 'en', 'name': 'English', 'native': 'English'}]",https://assets.ipstack.com/flags/us.svg,ğŸ‡ºğŸ‡¸,U+1F1FA U+1F1F8,1,False,,,,
50,https://nj-us-ping.vultr.com,Vultr,NJ,New Jersey,United States,108.61.149.182,"{'ip': '108.61.149.182', 'type': 'ipv4', 'continent_code': 'NA', 'continent_name': 'North America', 'country_code': 'US', 'country_name': 'United States', 'region_code': 'NJ', 'region_name': 'New Jersey', 'city': 'South Plainfield', 'zip': '08854', 'latitude': 40.54650115966797, 'longitude': -74.46289825439453, 'location': {'geoname_id': 5104844, 'capital': 'Washington D.C.', 'languages': [{'code': 'en', 'name': 'English', 'native': 'English'}], 'country_flag': 'https://assets.ipstack.com/flags/us.svg', 'country_flag_emoji': 'ğŸ‡ºğŸ‡¸', 'country_flag_emoji_unicode': 'U+1F1FA U+1F1F8', 'calling_code': '1', 'is_eu': False}}",108.61.149.182,ipv4,NA,North America,US,United States,NJ,New Jersey,South Plainfield,08854,40.54650115966797,-74.46289825439453,5104844.0,Washington D.C.,"[{'code': 'en', 'name': 'English', 'native': 'English'}]",https://assets.ipstack.com/flags/us.svg,ğŸ‡ºğŸ‡¸,U+1F1FA U+1F1F8,1,False,,,,
51,https://tx-us-ping.vultr.com,Vultr,TX,Dallas,United States,108.61.224.175,"{'ip': '108.61.224.175', 'type': 'ipv4', 'continent_code': 'NA', 'continent_name': 'North America', 'country_code': 'US', 'country_name': 'United States', 'region_code': 'TX', 'region_name': 'Texas', 'city': 'Dallas', 'zip': '75219', 'latitude': 32.8054313659668, 'longitude': -96.8142318725586, 'location': {'geoname_id': 4684888, 'capital': 'Washington D.C.', 'languages': [{'code': 'en', 'name': 'English', 'native': 'English'}], 'country_flag': 'https://assets.ipstack.com/flags/us.svg', 'country_flag_emoji': 'ğŸ‡ºğŸ‡¸', 'country_flag_emoji_unicode': 'U+1F1FA U+1F1F8', 'calling_code': '1', 'is_eu': False}}",108.61.224.175,ipv4,NA,North America,US,United States,TX,Texas,Dallas,75219,32.8054313659668,-96.8142318725586,4684888.0,Washington D.C.,"[{'code': 'en', 'name': 'English', 'native': 'English'}]",https://assets.ipstack.com/flags/us.svg,ğŸ‡ºğŸ‡¸,U+1F1FA U+1F1F8,1,False,,,,
52,https://tor-ca-ping.vultr.com,Vultr,Unknown,Toronto,Canada,149.248.50.81,"{'ip': '149.248.50.81', 'type': 'ipv4', 'continent_code': 'NA', 'continent_name': 'North America', 'country_code': 'CA', 'country_name': 'Canada', 'region_code': 'ON', 'region_name': 'Ontario', 'city': 'Toronto', 'zip': 'M3H 6A7', 'latitude': 43.653499603271484, 'longitude': -79.38390350341797, 'location': {'geoname_id': 6167865, 'capital': 'Ottawa', 'languages': [{'code': 'en', 'name': 'English', 'native': 'English'}, {'code': 'fr', 'name': 'French', 'native': 'FranÃ§ais'}], 'country_flag': 'https://assets.ipstack.com/flags/ca.svg', 'country_flag_emoji': 'ğŸ‡¨ğŸ‡¦', 'country_flag_emoji_unicode': 'U+1F1E8 U+1F1E6', 'calling_code': '1', 'is_eu': False}}",149.248.50.81,ipv4,NA,North America,CA,Canada,ON,Ontario,Toronto,M3H 6A7,43.653499603271484,-79.38390350341797,6167865.0,Ottawa,"[{'code': 'en', 'name': 'English', 'native': 'English'}, {'code': 'fr', 'name': 'French', 'native': 'FranÃ§ais'}]",https://assets.ipstack.com/flags/ca.svg,ğŸ‡¨ğŸ‡¦,U+1F1E8 U+1F1E6,1,False,,,,
53,https://mex-mx-ping.vultr.com,Vultr,Unknown,Mexico City,Mexico,216.238.66.16,"{'ip': '216.238.66.16', 'type': 'ipv4', 'continent_code': 'NA', 'continent_name': 'North America', 'country_code': 'MX', 'country_name': 'Mexico', 'region_code': 'QUE', 'region_name': 'QuerÃ©taro', 'city': 'Santa Rosa Jauregui', 'zip': '76000', 'latitude': 20.5916690826416, 'longitude': -100.39167022705078, 'location': {'geoname_id': 3983820, 'capital': 'Mexico City', 'languages': [{'code': 'es', 'name': 'Spanish', 'native': 'EspaÃ±ol'}], 'country_flag': 'https://assets.ipstack.com/flags/mx.svg', 'country_flag_emoji': 'ğŸ‡²ğŸ‡½', 'country_flag_emoji_unicode': 'U+1F1F2 U+1F1FD', 'calling_code': '52', 'is_eu': False}}",216.238.66.16,ipv4,NA,North America,MX,Mexico,QUE,QuerÃ©taro,Santa Rosa Jauregui,76000,20.5916690826416,-100.39167022705078,3983820.0,Mexico City,"[{'code': 'es', 'name': 'Spanish', 'native': 'EspaÃ±ol'}]",https://assets.ipstack.com/flags/mx.svg,ğŸ‡²ğŸ‡½,U+1F1F2 U+1F1FD,52,False,,,,
54,https://sao-br-ping.vultr.com,Vultr,Unknown,Sao Paulo,Brazil,216.238.98.118,"{'ip': '216.238.98.118', 'type': 'ipv4', 'continent_code': 'SA', 'continent_name': 'South America', 'country_code': 'BR', 'country_name': 'Brazil', 'region_code': 'SP', 'region_name': 'SÃ£o Paulo', 'city': 'Osasco', 'zip': '06010-000', 'latitude': -23.532499313354492, 'longitude': -46.79167175292969, 'location': {'geoname_id': 3455775, 'capital': 'BrasÃ­lia', 'languages': [{'code': 'pt', 'name': 'Portuguese', 'native': 'PortuguÃªs'}], 'country_flag': 'https://assets.ipstack.com/flags/br.svg', 'country_flag_emoji': 'ğŸ‡§ğŸ‡·', 'country_flag_emoji_unicode': 'U+1F1E7 U+1F1F7', 'calling_code': '55', 'is_eu': False}}",216.238.98.118,ipv4,SA,South America,BR,Brazil,SP,SÃ£o Paulo,Osasco,06010-000,-23.532499313354492,-46.79167175292969,3455775.0,BrasÃ­lia,"[{'code': 'pt', 'name': 'Portuguese', 'native': 'PortuguÃªs'}]",https://assets.ipstack.com/flags/br.svg,ğŸ‡§ğŸ‡·,U+1F1E7 U+1F1F7,55,False,,,,
55,https://fra-de-ping.vultr.com,Vultr,Unknown,Frankfurt,Germany,108.61.210.117,"{'ip': '108.61.210.117', 'type': 'ipv4', 'continent_code': 'EU', 'continent_name': 'Europe', 'country_code': 'DE', 'country_name': 'Germany', 'region_code': 'HE', 'region_name': 'Hesse', 'city': 'Frankfurt am Main', 'zip': '60311', 'latitude': 50.11090087890625, 'longitude': 8.682100296020508, 'location': {'geoname_id': 2925533, 'capital': 'Berlin', 'languages': [{'code': 'de', 'name': 'German', 'native': 'Deutsch'}], 'country_flag': 'https://assets.ipstack.com/flags/de.svg', 'country_flag_emoji': 'ğŸ‡©ğŸ‡ª', 'country_flag_emoji_unicode': 'U+1F1E9 U+1F1EA', 'calling_code': '49', 'is_eu': True}}",108.61.210.117,ipv4,EU,Europe,DE,Germany,HE,Hesse,Frankfurt am Main,60311,50.11090087890625,8.682100296020508,2925533.0,Berlin,"[{'code': 'de', 'name': 'German', 'native': 'Deutsch'}]",https://assets.ipstack.com/flags/de.svg,ğŸ‡©ğŸ‡ª,U+1F1E9 U+1F1EA,49,True,,,,
56,https://mad-es-ping.vultr.com,Vultr,Unknown,Madrid,Spain,208.76.222.30,"{'ip': '208.76.222.30', 'type': 'ipv4', 'continent_code': 'EU', 'continent_name': 'Europe', 'country_code': 'ES', 'country_name': 'Spain', 'region_code': 'MD', 'region_name': 'Madrid', 'city': 'Madrid', 'zip': '28001', 'latitude': 40.41669845581055, 'longitude': -3.7002999782562256, 'location': {'geoname_id': 3117735, 'capital': 'Madrid', 'languages': [{'code': 'es', 'name': 'Spanish', 'native': 'EspaÃ±ol'}, {'code': 'eu', 'name': 'Basque', 'native': 'Euskara'}, {'code': 'ca', 'name': 'Catalan', 'native': 'CatalÃ '}, {'code': 'gl', 'name': 'Galician', 'native': 'Galego'}, {'code': 'oc', 'name': 'Occitan', 'native': 'Occitan'}], 'country_flag': 'https://assets.ipstack.com/flags/es.svg', 'country_flag_emoji': 'ğŸ‡ªğŸ‡¸', 'country_flag_emoji_unicode': 'U+1F1EA U+1F1F8', 'calling_code': '34', 'is_eu': True}}",208.76.222.30,ipv4,EU,Europe,ES,Spain,MD,Madrid,Madrid,28001,40.41669845581055,-3.7002999782562256,3117735.0,Madrid,"[{'code': 'es', 'name': 'Spanish', 'native': 'EspaÃ±ol'}, {'code': 'eu', 'name': 'Basque', 'native': 'Euskara'}, {'code': 'ca', 'name': 'Catalan', 'native': 'CatalÃ '}, {'code': 'gl', 'name': 'Galician', 'native': 'Galego'}, {'code': 'oc', 'name': 'Occitan', 'native': 'Occitan'}]",https://assets.ipstack.com/flags/es.svg,ğŸ‡ªğŸ‡¸,U+1F1EA U+1F1F8,34,True,,,,
57,https://par-fr-ping.vultr.com,Vultr,Unknown,Paris,France,108.61.209.127,"{'ip': '108.61.209.127', 'type': 'ipv4', 'continent_code': 'EU', 'continent_name': 'Europe', 'country_code': 'FR', 'country_name': 'France', 'region_code': 'IDF', 'region_name': 'Ãle-de-France', 'city': 'Aubervilliers', 'zip': '93300', 'latitude': 48.91230010986328, 'longitude': 2.384000062942505, 'location': {'geoname_id': 3036386, 'capital': 'Paris', 'languages': [{'code': 'fr', 'name': 'French', 'native': 'FranÃ§ais'}], 'country_flag': 'https://assets.ipstack.com/flags/fr.svg', 'country_flag_emoji': 'ğŸ‡«ğŸ‡·', 'country_flag_emoji_unicode': 'U+1F1EB U+1F1F7', 'calling_code': '33', 'is_eu': True}}",108.61.209.127,ipv4,EU,Europe,FR,France,IDF,Ãle-de-France,Aubervilliers,93300,48.91230010986328,2.384000062942505,3036386.0,Paris,"[{'code': 'fr', 'name': 'French', 'native': 'FranÃ§ais'}]",https://assets.ipstack.com/flags/fr.svg,ğŸ‡«ğŸ‡·,U+1F1EB U+1F1F7,33,True,,,,
58,https://lon-gb-ping.vultr.com,Vultr,Unknown,London,UK,108.61.196.101,"{'ip': '108.61.196.101', 'type': 'ipv4', 'continent_code': 'EU', 'continent_name': 'Europe', 'country_code': 'GB', 'country_name': 'United Kingdom', 'region_code': 'ENG', 'region_name': 'England', 'city': 'Canning Town', 'zip': None, 'latitude': 51.50019836425781, 'longitude': -0.12620000541210175, 'location': {'geoname_id': 11549407, 'capital': 'London', 'languages': [{'code': 'en', 'name': 'English', 'native': 'English'}], 'country_flag': 'https://assets.ipstack.com/flags/gb.svg', 'country_flag_emoji': 'ğŸ‡¬ğŸ‡§', 'country_flag_emoji_unicode': 'U+1F1EC U+1F1E7', 'calling_code': '44', 'is_eu': True}}",108.61.196.101,ipv4,EU,Europe,GB,United Kingdom,ENG,England,Canning Town,,51.50019836425781,-0.12620000541210175,11549407.0,London,"[{'code': 'en', 'name': 'English', 'native': 'English'}]",https://assets.ipstack.com/flags/gb.svg,ğŸ‡¬ğŸ‡§,U+1F1EC U+1F1E7,44,True,,,,
59,https://ams-nl-ping.vultr.com,Vultr,Unknown,Amsterdam,Netherlands,108.61.198.102,"{'ip': '108.61.198.102', 'type': 'ipv4', 'continent_code': 'EU', 'continent_name': 'Europe', 'country_code': 'NL', 'country_name': 'Netherlands', 'region_code': 'NH', 'region_name': 'North Holland', 'city': 'Diemen', 'zip': '1101', 'latitude': 52.349998474121094, 'longitude': 4.916999816894531, 'location': {'geoname_id': 2756888, 'capital': 'Amsterdam', 'languages': [{'code': 'nl', 'name': 'Dutch', 'native': 'Nederlands'}], 'country_flag': 'https://assets.ipstack.com/flags/nl.svg', 'country_flag_emoji': 'ğŸ‡³ğŸ‡±', 'country_flag_emoji_unicode': 'U+1F1F3 U+1F1F1', 'calling_code': '31', 'is_eu': True}}",108.61.198.102,ipv4,EU,Europe,NL,Netherlands,NH,North Holland,Diemen,1101,52.349998474121094,4.916999816894531,2756888.0,Amsterdam,"[{'code': 'nl', 'name': 'Dutch', 'native': 'Nederlands'}]",https://assets.ipstack.com/flags/nl.svg,ğŸ‡³ğŸ‡±,U+1F1F3 U+1F1F1,31,True,,,,
60,https://waw-pl-ping.vultr.com,Vultr,Unknown,Warsaw,Poland,70.34.242.24,"{'ip': '70.34.242.24', 'type': 'ipv4', 'continent_code': 'EU', 'continent_name': 'Europe', 'country_code': 'PL', 'country_name': 'Poland', 'region_code': 'MZ', 'region_name': 'Mazovia', 'city': 'Warsaw', 'zip': '00-025', 'latitude': 52.229698181152344, 'longitude': 21.01219940185547, 'location': {'geoname_id': 756135, 'capital': 'Warsaw', 'languages': [{'code': 'pl', 'name': 'Polish', 'native': 'Polski'}], 'country_flag': 'https://assets.ipstack.com/flags/pl.svg', 'country_flag_emoji': 'ğŸ‡µğŸ‡±', 'country_flag_emoji_unicode': 'U+1F1F5 U+1F1F1', 'calling_code': '48', 'is_eu': True}}",70.34.242.24,ipv4,EU,Europe,PL,Poland,MZ,Mazovia,Warsaw,00-025,52.229698181152344,21.01219940185547,756135.0,Warsaw,"[{'code': 'pl', 'name': 'Polish', 'native': 'Polski'}]",https://assets.ipstack.com/flags/pl.svg,ğŸ‡µğŸ‡±,U+1F1F5 U+1F1F1,48,True,,,,
61,https://sto-se-ping.vultr.com,Vultr,Unknown,Stockholm,Sweden,70.34.194.86,"{'ip': '70.34.194.86', 'type': 'ipv4', 'continent_code': 'EU', 'continent_name': 'Europe', 'country_code': 'SE', 'country_name': 'Sweden', 'region_code': 'AB', 'region_name': 'Stockholm', 'city': 'Jakobsberg', 'zip': '163 51', 'latitude': 59.38100051879883, 'longitude': 17.898500442504883, 'location': {'geoname_id': 2703396, 'capital': 'Stockholm', 'languages': [{'code': 'sv', 'name': 'Swedish', 'native': 'Svenska'}], 'country_flag': 'https://assets.ipstack.com/flags/se.svg', 'country_flag_emoji': 'ğŸ‡¸ğŸ‡ª', 'country_flag_emoji_unicode': 'U+1F1F8 U+1F1EA', 'calling_code': '46', 'is_eu': True}}",70.34.194.86,ipv4,EU,Europe,SE,Sweden,AB,Stockholm,Jakobsberg,163 51,59.38100051879883,17.898500442504883,2703396.0,Stockholm,"[{'code': 'sv', 'name': 'Swedish', 'native': 'Svenska'}]",https://assets.ipstack.com/flags/se.svg,ğŸ‡¸ğŸ‡ª,U+1F1F8 U+1F1EA,46,True,,,,
62,https://hnd-jp-ping.vultr.com,Vultr,Unknown,Tokyo,Japan,108.61.201.151,"{'ip': '108.61.201.151', 'type': 'ipv4', 'continent_code': 'AS', 'continent_name': 'Asia', 'country_code': 'JP', 'country_name': 'Japan', 'region_code': '14', 'region_name': 'Kanagawa', 'city': 'Kawasaki', 'zip': '135-0092', 'latitude': 35.60919952392578, 'longitude': 139.73019409179688, 'location': {'geoname_id': 1859642, 'capital': 'Tokyo', 'languages': [{'code': 'ja', 'name': 'Japanese', 'native': 'æ—¥æœ¬èª'}], 'country_flag': 'https://assets.ipstack.com/flags/jp.svg', 'country_flag_emoji': 'ğŸ‡¯ğŸ‡µ', 'country_flag_emoji_unicode': 'U+1F1EF U+1F1F5', 'calling_code': '81', 'is_eu': False}}",108.61.201.151,ipv4,AS,Asia,JP,Japan,14,Kanagawa,Kawasaki,135-0092,35.60919952392578,139.73019409179688,1859642.0,Tokyo,"[{'code': 'ja', 'name': 'Japanese', 'native': 'æ—¥æœ¬èª'}]",https://assets.ipstack.com/flags/jp.svg,ğŸ‡¯ğŸ‡µ,U+1F1EF U+1F1F5,81,False,,,,
63,https://sel-kor-ping.vultr.com,Vultr,Unknown,Seoul,Korea,141.164.34.61,"{'ip': '141.164.34.61', 'type': 'ipv4', 'continent_code': 'AS', 'continent_name': 'Asia', 'country_code': 'KR', 'country_name': 'South Korea', 'region_code': '11', 'region_name': 'Seoul', 'city': 'Seoul', 'zip': '100-011', 'latitude': 37.56306076049805, 'longitude': 126.97693634033203, 'location': {'geoname_id': 1835848, 'capital': 'Seoul', 'languages': [{'code': 'ko', 'name': 'Korean', 'native': 'í•œêµ­ì–´'}], 'country_flag': 'https://assets.ipstack.com/flags/kr.svg', 'country_flag_emoji': 'ğŸ‡°ğŸ‡·', 'country_flag_emoji_unicode': 'U+1F1F0 U+1F1F7', 'calling_code': '82', 'is_eu': False}}",141.164.34.61,ipv4,AS,Asia,KR,South Korea,11,Seoul,Seoul,100-011,37.56306076049805,126.97693634033203,1835848.0,Seoul,"[{'code': 'ko', 'name': 'Korean', 'native': 'í•œêµ­ì–´'}]",https://assets.ipstack.com/flags/kr.svg,ğŸ‡°ğŸ‡·,U+1F1F0 U+1F1F7,82,False,,,,
64,https://sgp-ping.vultr.com,Vultr,Unknown,Seoul,Korea,45.32.100.168,"{'ip': '45.32.100.168', 'type': 'ipv4', 'continent_code': 'AS', 'continent_name': 'Asia', 'country_code': 'SG', 'country_name': 'Singapore', 'region_code': '01', 'region_name': 'Central Singapore', 'city': 'Singapore', 'zip': '247964', 'latitude': 1.287950038909912, 'longitude': 103.8517837524414, 'location': {'geoname_id': 1880252, 'capital': 'Singapore', 'languages': [{'code': 'en', 'name': 'English', 'native': 'English'}, {'code': 'ms', 'name': 'Malay', 'native': 'Bahasa Melayu'}, {'code': 'ta', 'name': 'Tamil', 'native': 'à®¤à®®à®¿à®´à¯'}, {'code': 'zh', 'name': 'Chinese', 'native': 'ä¸­æ–‡'}], 'country_flag': 'https://assets.ipstack.com/flags/sg.svg', 'country_flag_emoji': 'ğŸ‡¸ğŸ‡¬', 'country_flag_emoji_unicode': 'U+1F1F8 U+1F1EC', 'calling_code': '65', 'is_eu': False}}",45.32.100.168,ipv4,AS,Asia,SG,Singapore,01,Central Singapore,Singapore,247964,1.287950038909912,103.8517837524414,1880252.0,Singapore,"[{'code': 'en', 'name': 'English', 'native': 'English'}, {'code': 'ms', 'name': 'Malay', 'native': 'Bahasa Melayu'}, {'code': 'ta', 'name': 'Tamil', 'native': 'à®¤à®®à®¿à®´à¯'}, {'code': 'zh', 'name': 'Chinese', 'native': 'ä¸­æ–‡'}]",https://assets.ipstack.com/flags/sg.svg,ğŸ‡¸ğŸ‡¬,U+1F1F8 U+1F1EC,65,False,,,,
65,https://syd-au-ping.vultr.com,Vultr,Unknown,Sydney,Australia,108.61.212.117,"{'ip': '108.61.212.117', 'type': 'ipv4', 'continent_code': 'OC', 'continent_name': 'Oceania', 'country_code': 'AU', 'country_name': 'Australia', 'region_code': 'NSW', 'region_name': 'New South Wales', 'city': 'Sydney', 'zip': '2015', 'latitude': -33.90299987792969, 'longitude': 151.1959991455078, 'location': {'geoname_id': 2147714, 'capital': 'Canberra', 'languages': [{'code': 'en', 'name': 'English', 'native': 'English'}], 'country_flag': 'https://assets.ipstack.com/flags/au.svg', 'country_flag_emoji': 'ğŸ‡¦ğŸ‡º', 'country_flag_emoji_unicode': 'U+1F1E6 U+1F1FA', 'calling_code': '61', 'is_eu': False}}",108.61.212.117,ipv4,OC,Oceania,AU,Australia,NSW,New South Wales,Sydney,2015,-33.90299987792969,151.1959991455078,2147714.0,Canberra,"[{'code': 'en', 'name': 'English', 'native': 'English'}]",https://assets.ipstack.com/flags/au.svg,ğŸ‡¦ğŸ‡º,U+1F1E6 U+1F1FA,61,False,,,,
66,https://mel-au-ping.vultr.com,Vultr,Unknown,Melbourne,Australia,67.219.110.24,"{'ip': '67.219.110.24', 'type': 'ipv4', 'continent_code': 'OC', 'continent_name': 'Oceania', 'country_code': 'AU', 'country_name': 'Australia', 'region_code': 'VIC', 'region_name': 'Victoria', 'city': 'Melbourne', 'zip': '3207', 'latitude': -37.83689880371094, 'longitude': 144.94459533691406, 'location': {'geoname_id': 2158177, 'capital': 'Canberra', 'languages': [{'code': 'en', 'name': 'English', 'native': 'English'}], 'country_flag': 'https://assets.ipstack.com/flags/au.svg', 'country_flag_emoji': 'ğŸ‡¦ğŸ‡º', 'country_flag_emoji_unicode': 'U+1F1E6 U+1F1FA', 'calling_code': '61', 'is_eu': False}}",67.219.110.24,ipv4,OC,Oceania,AU,Australia,VIC,Victoria,Melbourne,3207,-37.83689880371094,144.94459533691406,2158177.0,Canberra,"[{'code': 'en', 'name': 'English', 'native': 'English'}]",https://assets.ipstack.com/flags/au.svg,ğŸ‡¦ğŸ‡º,U+1F1E6 U+1F1FA,61,False,,,,
67,https://speedtest.newark.linode.com/,Linode,US East,Newark,East,50.116.57.237,"{'ip': '50.116.57.237', 'type': 'ipv4', 'continent_code': 'NA', 'continent_name': 'North America', 'country_code': 'US', 'country_name': 'United States', 'region_code': 'NJ', 'region_name': 'New Jersey', 'city': 'Morristown', 'zip': '07927', 'latitude': 40.82490158081055, 'longitude': -74.45539855957031, 'location': {'geoname_id': 5101427, 'capital': 'Washington D.C.', 'languages': [{'code': 'en', 'name': 'English', 'native': 'English'}], 'country_flag': 'https://assets.ipstack.com/flags/us.svg', 'country_flag_emoji': 'ğŸ‡ºğŸ‡¸', 'country_flag_emoji_unicode': 'U+1F1FA U+1F1F8', 'calling_code': '1', 'is_eu': False}}",50.116.57.237,ipv4,NA,North America,US,United States,NJ,New Jersey,Morristown,07927,40.82490158081055,-74.45539855957031,5101427.0,Washington D.C.,"[{'code': 'en', 'name': 'English', 'native': 'English'}]",https://assets.ipstack.com/flags/us.svg,ğŸ‡ºğŸ‡¸,U+1F1FA U+1F1F8,1,False,,,,
68,https://speedtest.atlanta.linode.com/,Linode,US Southeast,Atlanta,Southeast,192.155.94.157,"{'ip': '192.155.94.157', 'type': 'ipv4', 'continent_code': 'NA', 'continent_name': 'North America', 'country_code': 'US', 'country_name': 'United States', 'region_code': 'GA', 'region_name': 'Georgia', 'city': 'Atlanta', 'zip': '30309', 'latitude': 33.798458099365234, 'longitude': -84.3882827758789, 'location': {'geoname_id': 4180439, 'capital': 'Washington D.C.', 'languages': [{'code': 'en', 'name': 'English', 'native': 'English'}], 'country_flag': 'https://assets.ipstack.com/flags/us.svg', 'country_flag_emoji': 'ğŸ‡ºğŸ‡¸', 'country_flag_emoji_unicode': 'U+1F1FA U+1F1F8', 'calling_code': '1', 'is_eu': False}}",192.155.94.157,ipv4,NA,North America,US,United States,GA,Georgia,Atlanta,30309,33.798458099365234,-84.3882827758789,4180439.0,Washington D.C.,"[{'code': 'en', 'name': 'English', 'native': 'English'}]",https://assets.ipstack.com/flags/us.svg,ğŸ‡ºğŸ‡¸,U+1F1FA U+1F1F8,1,False,,,,
69,https://speedtest.dallas.linode.com/,Linode,US Central,Dallas,Central,50.116.25.154,"{'ip': '50.116.25.154', 'type': 'ipv4', 'continent_code': 'NA', 'continent_name': 'North America', 'country_code': 'US', 'country_name': 'United States', 'region_code': 'TX', 'region_name': 'Texas', 'city': 'Richardson', 'zip': '75081', 'latitude': 32.94934844970703, 'longitude': -96.7155990600586, 'location': {'geoname_id': 4722625, 'capital': 'Washington D.C.', 'languages': [{'code': 'en', 'name': 'English', 'native': 'English'}], 'country_flag': 'https://assets.ipstack.com/flags/us.svg', 'country_flag_emoji': 'ğŸ‡ºğŸ‡¸', 'country_flag_emoji_unicode': 'U+1F1FA U+1F1F8', 'calling_code': '1', 'is_eu': False}}",50.116.25.154,ipv4,NA,North America,US,United States,TX,Texas,Richardson,75081,32.94934844970703,-96.7155990600586,4722625.0,Washington D.C.,"[{'code': 'en', 'name': 'English', 'native': 'English'}]",https://assets.ipstack.com/flags/us.svg,ğŸ‡ºğŸ‡¸,U+1F1FA U+1F1F8,1,False,,,,
70,https://speedtest.fremont.linode.com/,Linode,US West,Fremont,West,50.116.14.9,"{'ip': '50.116.14.9', 'type': 'ipv4', 'continent_code': 'NA', 'continent_name': 'North America', 'country_code': 'US', 'country_name': 'United States', 'region_code': 'CA', 'region_name': 'California', 'city': 'Fremont', 'zip': '94536', 'latitude': 37.56698989868164, 'longitude': -121.98265838623047, 'location': {'geoname_id': 5350734, 'capital': 'Washington D.C.', 'languages': [{'code': 'en', 'name': 'English', 'native': 'English'}], 'country_flag': 'https://assets.ipstack.com/flags/us.svg', 'country_flag_emoji': 'ğŸ‡ºğŸ‡¸', 'country_flag_emoji_unicode': 'U+1F1FA U+1F1F8', 'calling_code': '1', 'is_eu': False}}",50.116.14.9,ipv4,NA,North America,US,United States,CA,California,Fremont,94536,37.56698989868164,-121.98265838623047,5350734.0,Washington D.C.,"[{'code': 'en', 'name': 'English', 'native': 'English'}]",https://assets.ipstack.com/flags/us.svg,ğŸ‡ºğŸ‡¸,U+1F1FA U+1F1F8,1,False,,,,
71,https://speedtest.toronto1.linode.com/,Linode,CA Central,Toronto,Central,172.105.30.21,"{'ip': '172.105.30.21', 'type': 'ipv4', 'continent_code': 'NA', 'continent_name': 'North America', 'country_code': 'CA', 'country_name': 'Canada', 'region_code': 'ON', 'region_name': 'Ontario', 'city': 'Toronto', 'zip': 'M3H 6A7', 'latitude': 43.653499603271484, 'longitude': -79.38390350341797, 'location': {'geoname_id': 6167865, 'capital': 'Ottawa', 'languages': [{'code': 'en', 'name': 'English', 'native': 'English'}, {'code': 'fr', 'name': 'French', 'native': 'FranÃ§ais'}], 'country_flag': 'https://assets.ipstack.com/flags/ca.svg', 'country_flag_emoji': 'ğŸ‡¨ğŸ‡¦', 'country_flag_emoji_unicode': 'U+1F1E8 U+1F1E6', 'calling_code': '1', 'is_eu': False}}",172.105.30.21,ipv4,NA,North America,CA,Canada,ON,Ontario,Toronto,M3H 6A7,43.653499603271484,-79.38390350341797,6167865.0,Ottawa,"[{'code': 'en', 'name': 'English', 'native': 'English'}, {'code': 'fr', 'name': 'French', 'native': 'FranÃ§ais'}]",https://assets.ipstack.com/flags/ca.svg,ğŸ‡¨ğŸ‡¦,U+1F1E8 U+1F1E6,1,False,,,,
72,https://speedtest.frankfurt.linode.com/,Linode,Germany,Frankfurt,Unknown,139.162.130.8,"{'ip': '139.162.130.8', 'type': 'ipv4', 'continent_code': 'EU', 'continent_name': 'Europe', 'country_code': 'DE', 'country_name': 'Germany', 'region_code': 'HE', 'region_name': 'Hesse', 'city': 'Frankfurt am Main', 'zip': '60311', 'latitude': 50.11090087890625, 'longitude': 8.682100296020508, 'location': {'geoname_id': 2925533, 'capital': 'Berlin', 'languages': [{'code': 'de', 'name': 'German', 'native': 'Deutsch'}], 'country_flag': 'https://assets.ipstack.com/flags/de.svg', 'country_flag_emoji': 'ğŸ‡©ğŸ‡ª', 'country_flag_emoji_unicode': 'U+1F1E9 U+1F1EA', 'calling_code': '49', 'is_eu': True}}",139.162.130.8,ipv4,EU,Europe,DE,Germany,HE,Hesse,Frankfurt am Main,60311,50.11090087890625,8.682100296020508,2925533.0,Berlin,"[{'code': 'de', 'name': 'German', 'native': 'Deutsch'}]",https://assets.ipstack.com/flags/de.svg,ğŸ‡©ğŸ‡ª,U+1F1E9 U+1F1EA,49,True,,,,
73,https://speedtest.london.linode.com/,Linode,UK,London,Unknown,176.58.107.39,"{'ip': '176.58.107.39', 'type': 'ipv4', 'continent_code': 'EU', 'continent_name': 'Europe', 'country_code': 'GB', 'country_name': 'United Kingdom', 'region_code': 'ENG', 'region_name': 'England', 'city': 'Canning Town', 'zip': None, 'latitude': 51.50019836425781, 'longitude': -0.12620000541210175, 'location': {'geoname_id': 11549407, 'capital': 'London', 'languages': [{'code': 'en', 'name': 'English', 'native': 'English'}], 'country_flag': 'https://assets.ipstack.com/flags/gb.svg', 'country_flag_emoji': 'ğŸ‡¬ğŸ‡§', 'country_flag_emoji_unicode': 'U+1F1EC U+1F1E7', 'calling_code': '44', 'is_eu': True}}",176.58.107.39,ipv4,EU,Europe,GB,United Kingdom,ENG,England,Canning Town,,51.50019836425781,-0.12620000541210175,11549407.0,London,"[{'code': 'en', 'name': 'English', 'native': 'English'}]",https://assets.ipstack.com/flags/gb.svg,ğŸ‡¬ğŸ‡§,U+1F1EC U+1F1E7,44,True,,,,
74,https://speedtest.singapore.linode.com/,Linode,AP South,Singapore,South,139.162.23.4,"{'ip': '139.162.23.4', 'type': 'ipv4', 'continent_code': 'AS', 'continent_name': 'Asia', 'country_code': 'SG', 'country_name': 'Singapore', 'region_code': '01', 'region_name': 'Central Singapore', 'city': 'Singapore', 'zip': '247964', 'latitude': 1.287950038909912, 'longitude': 103.8517837524414, 'location': {'geoname_id': 1880252, 'capital': 'Singapore', 'languages': [{'code': 'en', 'name': 'English', 'native': 'English'}, {'code': 'ms', 'name': 'Malay', 'native': 'Bahasa Melayu'}, {'code': 'ta', 'name': 'Tamil', 'native': 'à®¤à®®à®¿à®´à¯'}, {'code': 'zh', 'name': 'Chinese', 'native': 'ä¸­æ–‡'}], 'country_flag': 'https://assets.ipstack.com/flags/sg.svg', 'country_flag_emoji': 'ğŸ‡¸ğŸ‡¬', 'country_flag_emoji_unicode': 'U+1F1F8 U+1F1EC', 'calling_code': '65', 'is_eu': False}}",139.162.23.4,ipv4,AS,Asia,SG,Singapore,01,Central Singapore,Singapore,247964,1.287950038909912,103.8517837524414,1880252.0,Singapore,"[{'code': 'en', 'name': 'English', 'native': 'English'}, {'code': 'ms', 'name': 'Malay', 'native': 'Bahasa Melayu'}, {'code': 'ta', 'name': 'Tamil', 'native': 'à®¤à®®à®¿à®´à¯'}, {'code': 'zh', 'name': 'Chinese', 'native': 'ä¸­æ–‡'}]",https://assets.ipstack.com/flags/sg.svg,ğŸ‡¸ğŸ‡¬,U+1F1F8 U+1F1EC,65,False,,,,
75,https://speedtest.syd1.linode.com/,Linode,AP Southeast,Sydney,Southeast,172.105.174.7,"{'ip': '172.105.174.7', 'type': 'ipv4', 'continent_code': 'OC', 'continent_name': 'Oceania', 'country_code': 'AU', 'country_name': 'Australia', 'region_code': 'NSW', 'region_name': 'New South Wales', 'city': 'Sydney', 'zip': '2000', 'latitude': -33.868900299072266, 'longitude': 151.2071075439453, 'location': {'geoname_id': 2147714, 'capital': 'Canberra', 'languages': [{'code': 'en', 'name': 'English', 'native': 'English'}], 'country_flag': 'https://assets.ipstack.com/flags/au.svg', 'country_flag_emoji': 'ğŸ‡¦ğŸ‡º', 'country_flag_emoji_unicode': 'U+1F1E6 U+1F1FA', 'calling_code': '61', 'is_eu': False}}",172.105.174.7,ipv4,OC,Oceania,AU,Australia,NSW,New South Wales,Sydney,2000,-33.868900299072266,151.2071075439453,2147714.0,Canberra,"[{'code': 'en', 'name': 'English', 'native': 'English'}]",https://assets.ipstack.com/flags/au.svg,ğŸ‡¦ğŸ‡º,U+1F1E6 U+1F1FA,61,False,,,,
76,https://speedtest.tokyo2.linode.com/,Linode,AP Northeast,Tokyo,Northeast,139.162.65.37,"{'ip': '139.162.65.37', 'type': 'ipv4', 'continent_code': 'AS', 'continent_name': 'Asia', 'country_code': 'JP', 'country_name': 'Japan', 'region_code': '13', 'region_name': 'Tokyo', 'city': 'Tokyo', 'zip': '162-0843', 'latitude': 35.68949890136719, 'longitude': 139.6916961669922, 'location': {'geoname_id': 1850147, 'capital': 'Tokyo', 'languages': [{'code': 'ja', 'name': 'Japanese', 'native': 'æ—¥æœ¬èª'}], 'country_flag': 'https://assets.ipstack.com/flags/jp.svg', 'country_flag_emoji': 'ğŸ‡¯ğŸ‡µ', 'country_flag_emoji_unicode': 'U+1F1EF U+1F1F5', 'calling_code': '81', 'is_eu': False}}",139.162.65.37,ipv4,AS,Asia,JP,Japan,13,Tokyo,Tokyo,162-0843,35.68949890136719,139.6916961669922,1850147.0,Tokyo,"[{'code': 'ja', 'name': 'Japanese', 'native': 'æ—¥æœ¬èª'}]",https://assets.ipstack.com/flags/jp.svg,ğŸ‡¯ğŸ‡µ,U+1F1EF U+1F1F5,81,False,,,,
77,https://speedtest.mumbai1.linode.com/,Linode,AP West,Mumbai,West,172.105.33.31,"{'ip': '172.105.33.31', 'type': 'ipv4', 'continent_code': 'AS', 'continent_name': 'Asia', 'country_code': 'IN', 'country_name': 'India', 'region_code': 'MH', 'region_name': 'Maharashtra', 'city': 'Powai', 'zip': '400070', 'latitude': 19.076000213623047, 'longitude': 72.87770080566406, 'location': {'geoname_id': 6324621, 'capital': 'New Delhi', 'languages': [{'code': 'hi', 'name': 'Hindi', 'native': 'à¤¹à¤¿à¤¨à¥à¤¦à¥€'}, {'code': 'en', 'name': 'English', 'native': 'English'}], 'country_flag': 'https://assets.ipstack.com/flags/in.svg', 'country_flag_emoji': 'ğŸ‡®ğŸ‡³', 'country_flag_emoji_unicode': 'U+1F1EE U+1F1F3', 'calling_code': '91', 'is_eu': False}}",172.105.33.31,ipv4,AS,Asia,IN,India,MH,Maharashtra,Powai,400070,19.076000213623047,72.87770080566406,6324621.0,New Delhi,"[{'code': 'hi', 'name': 'Hindi', 'native': 'à¤¹à¤¿à¤¨à¥à¤¦à¥€'}, {'code': 'en', 'name': 'English', 'native': 'English'}]",https://assets.ipstack.com/flags/in.svg,ğŸ‡®ğŸ‡³,U+1F1EE U+1F1F3,91,False,,,,
78,https://feitsui-hkg-1251417183.cos.ap-hongkong.myqcloud.com/ping.html,Tencent,Unknown,Hong Kong,China,43.132.105.108,"{'ip': '43.132.105.108', 'type': 'ipv4', 'continent_code': 'AS', 'continent_name': 'Asia', 'country_code': 'HK', 'country_name': 'Hong Kong SAR China', 'region_code': 'HSO', 'region_name': 'Southern', 'city': 'Aberdeen', 'zip': None, 'latitude': 22.248310089111328, 'longitude': 114.15239715576172, 'location': {'geoname_id': 1819757, 'capital': 'City of Victoria', 'languages': [{'code': 'zh', 'name': 'Chinese', 'native': 'ä¸­æ–‡'}, {'code': 'en', 'name': 'English', 'native': 'English'}], 'country_flag': 'https://assets.ipstack.com/flags/hk.svg', 'country_flag_emoji': 'ğŸ‡­ğŸ‡°', 'country_flag_emoji_unicode': 'U+1F1ED U+1F1F0', 'calling_code': '852', 'is_eu': False}}",43.132.105.108,ipv4,AS,Asia,HK,Hong Kong SAR China,HSO,Southern,Aberdeen,,22.248310089111328,114.15239715576172,1819757.0,City of Victoria,"[{'code': 'zh', 'name': 'Chinese', 'native': 'ä¸­æ–‡'}, {'code': 'en', 'name': 'English', 'native': 'English'}]",https://assets.ipstack.com/flags/hk.svg,ğŸ‡­ğŸ‡°,U+1F1ED U+1F1F0,852,False,,,,
79,https://feitsui-bkk-1251417183.cos.ap-bangkok.myqcloud.com/ping.html,Tencent,Unknown,Bangkok,Thailand,43.128.193.10,"{'ip': '43.128.193.10', 'type': 'ipv4', 'continent_code': 'AS', 'continent_name': 'Asia', 'country_code': 'TH', 'country_name': 'Thailand', 'region_code': '10', 'region_name': 'Bangkok', 'city': 'Bangkok', 'zip': '10200', 'latitude': 13.734169960021973, 'longitude': 100.52916717529297, 'location': {'geoname_id': 1609350, 'capital': 'Bangkok', 'languages': [{'code': 'th', 'name': 'Thai', 'native': 'à¹„à¸—à¸¢ / Phasa Thai'}], 'country_flag': 'https://assets.ipstack.com/flags/th.svg', 'country_flag_emoji': 'ğŸ‡¹ğŸ‡­', 'country_flag_emoji_unicode': 'U+1F1F9 U+1F1ED', 'calling_code': '66', 'is_eu': False}}",43.128.193.10,ipv4,AS,Asia,TH,Thailand,10,Bangkok,Bangkok,10200,13.734169960021973,100.52916717529297,1609350.0,Bangkok,"[{'code': 'th', 'name': 'Thai', 'native': 'à¹„à¸—à¸¢ / Phasa Thai'}]",https://assets.ipstack.com/flags/th.svg,ğŸ‡¹ğŸ‡­,U+1F1F9 U+1F1ED,66,False,,,,
80,https://feitsui-cgk-1251417183.cos.ap-jakarta.myqcloud.com/ping.html,Tencent,Unknown,Jakarta,Indonesia,43.129.45.240,"{'ip': '43.129.45.240', 'type': 'ipv4', 'continent_code': 'AS', 'continent_name': 'Asia', 'country_code': 'ID', 'country_name': 'Indonesia', 'region_code': 'JK', 'region_name': 'Jakarta', 'city': 'Jakarta', 'zip': '10110', 'latitude': -6.21150016784668, 'longitude': 106.84519958496094, 'location': {'geoname_id': 1642911, 'capital': 'Jakarta', 'languages': [{'code': 'id', 'name': 'Indonesian', 'native': 'Bahasa Indonesia'}], 'country_flag': 'https://assets.ipstack.com/flags/id.svg', 'country_flag_emoji': 'ğŸ‡®ğŸ‡©', 'country_flag_emoji_unicode': 'U+1F1EE U+1F1E9', 'calling_code': '62', 'is_eu': False}}",43.129.45.240,ipv4,AS,Asia,ID,Indonesia,JK,Jakarta,Jakarta,10110,-6.21150016784668,106.84519958496094,1642911.0,Jakarta,"[{'code': 'id', 'name': 'Indonesian', 'native': 'Bahasa Indonesia'}]",https://assets.ipstack.com/flags/id.svg,ğŸ‡®ğŸ‡©,U+1F1EE U+1F1E9,62,False,,,,
81,https://feitsui-bom-1251417183.cos.ap-mumbai.myqcloud.com/ping.html,Tencent,Unknown,Mumbai,India,101.32.231.20,"{'ip': '101.32.231.20', 'type': 'ipv4', 'continent_code': 'AS', 'continent_name': 'Asia', 'country_code': 'IN', 'country_name': 'India', 'region_code': 'MH', 'region_name': 'Maharashtra', 'city': 'Powai', 'zip': '400070', 'latitude': 19.076000213623047, 'longitude': 72.87770080566406, 'location': {'geoname_id': 6324621, 'capital': 'New Delhi', 'languages': [{'code': 'hi', 'name': 'Hindi', 'native': 'à¤¹à¤¿à¤¨à¥à¤¦à¥€'}, {'code': 'en', 'name': 'English', 'native': 'English'}], 'country_flag': 'https://assets.ipstack.com/flags/in.svg', 'country_flag_emoji': 'ğŸ‡®ğŸ‡³', 'country_flag_emoji_unicode': 'U+1F1EE U+1F1F3', 'calling_code': '91', 'is_eu': False}}",101.32.231.20,ipv4,AS,Asia,IN,India,MH,Maharashtra,Powai,400070,19.076000213623047,72.87770080566406,6324621.0,New Delhi,"[{'code': 'hi', 'name': 'Hindi', 'native': 'à¤¹à¤¿à¤¨à¥à¤¦à¥€'}, {'code': 'en', 'name': 'English', 'native': 'English'}]",https://assets.ipstack.com/flags/in.svg,ğŸ‡®ğŸ‡³,U+1F1EE U+1F1F3,91,False,,,,
82,https://feitsui-icn-1251417183.cos.ap-seoul.myqcloud.com/ping.html,Tencent,Unknown,Seoul,Korea,119.28.147.117,"{'ip': '119.28.147.117', 'type': 'ipv4', 'continent_code': 'AS', 'continent_name': 'Asia', 'country_code': 'KR', 'country_name': 'South Korea', 'region_code': '11', 'region_name': 'Seoul', 'city': 'Seoul', 'zip': '100-011', 'latitude': 37.56306076049805, 'longitude': 126.97693634033203, 'location': {'geoname_id': 1835848, 'capital': 'Seoul', 'languages': [{'code': 'ko', 'name': 'Korean', 'native': 'í•œêµ­ì–´'}], 'country_flag': 'https://assets.ipstack.com/flags/kr.svg', 'country_flag_emoji': 'ğŸ‡°ğŸ‡·', 'country_flag_emoji_unicode': 'U+1F1F0 U+1F1F7', 'calling_code': '82', 'is_eu': False}}",119.28.147.117,ipv4,AS,Asia,KR,South Korea,11,Seoul,Seoul,100-011,37.56306076049805,126.97693634033203,1835848.0,Seoul,"[{'code': 'ko', 'name': 'Korean', 'native': 'í•œêµ­ì–´'}]",https://assets.ipstack.com/flags/kr.svg,ğŸ‡°ğŸ‡·,U+1F1F0 U+1F1F7,82,False,,,,
83,https://feitsui-sin-1251417183.cos.ap-singapore.myqcloud.com/ping.html,Tencent,Unknown,Singapore,Singapore,43.152.64.193,"{'ip': '43.152.64.193', 'type': 'ipv4', 'continent_code': 'AS', 'continent_name': 'Asia', 'country_code': 'SG', 'country_name': 'Singapore', 'region_code': '01', 'region_name': 'Central Singapore', 'city': 'Singapore', 'zip': '247964', 'latitude': 1.287950038909912, 'longitude': 103.8517837524414, 'location': {'geoname_id': 1880252, 'capital': 'Singapore', 'languages': [{'code': 'en', 'name': 'English', 'native': 'English'}, {'code': 'ms', 'name': 'Malay', 'native': 'Bahasa Melayu'}, {'code': 'ta', 'name': 'Tamil', 'native': 'à®¤à®®à®¿à®´à¯'}, {'code': 'zh', 'name': 'Chinese', 'native': 'ä¸­æ–‡'}], 'country_flag': 'https://assets.ipstack.com/flags/sg.svg', 'country_flag_emoji': 'ğŸ‡¸ğŸ‡¬', 'country_flag_emoji_unicode': 'U+1F1F8 U+1F1EC', 'calling_code': '65', 'is_eu': False}}",43.152.64.193,ipv4,AS,Asia,SG,Singapore,01,Central Singapore,Singapore,247964,1.287950038909912,103.8517837524414,1880252.0,Singapore,"[{'code': 'en', 'name': 'English', 'native': 'English'}, {'code': 'ms', 'name': 'Malay', 'native': 'Bahasa Melayu'}, {'code': 'ta', 'name': 'Tamil', 'native': 'à®¤à®®à®¿à®´à¯'}, {'code': 'zh', 'name': 'Chinese', 'native': 'ä¸­æ–‡'}]",https://assets.ipstack.com/flags/sg.svg,ğŸ‡¸ğŸ‡¬,U+1F1F8 U+1F1EC,65,False,,,,
84,https://feitsui-nrt-1251417183.cos.ap-tokyo.myqcloud.com/ping.html,Tencent,Unknown,Tokyo,Japan,43.128.240.52,"{'ip': '43.128.240.52', 'type': 'ipv4', 'continent_code': 'AS', 'continent_name': 'Asia', 'country_code': 'JP', 'country_name': 'Japan', 'region_code': '13', 'region_name': 'Tokyo', 'city': 'Tokyo', 'zip': '162-0843', 'latitude': 35.68949890136719, 'longitude': 139.6916961669922, 'location': {'geoname_id': 1850147, 'capital': 'Tokyo', 'languages': [{'code': 'ja', 'name': 'Japanese', 'native': 'æ—¥æœ¬èª'}], 'country_flag': 'https://assets.ipstack.com/flags/jp.svg', 'country_flag_emoji': 'ğŸ‡¯ğŸ‡µ', 'country_flag_emoji_unicode': 'U+1F1EF U+1F1F5', 'calling_code': '81', 'is_eu': False}}",43.128.240.52,ipv4,AS,Asia,JP,Japan,13,Tokyo,Tokyo,162-0843,35.68949890136719,139.6916961669922,1850147.0,Tokyo,"[{'code': 'ja', 'name': 'Japanese', 'native': 'æ—¥æœ¬èª'}]",https://assets.ipstack.com/flags/jp.svg,ğŸ‡¯ğŸ‡µ,U+1F1EF U+1F1F5,81,False,,,,
85,https://feitsui-iad-1251417183.cos.na-ashburn.myqcloud.com/ping.html,Tencent,VA,Ashburn,United States,49.51.77.119,"{'ip': '49.51.77.119', 'type': 'ipv4', 'continent_code': 'NA', 'continent_name': 'North America', 'country_code': 'US', 'country_name': 'United States', 'region_code': 'CA', 'region_name': 'California', 'city': 'Los Angeles', 'zip': '90013', 'latitude': 34.04563903808594, 'longitude': -118.24163818359375, 'location': {'geoname_id': 5368361, 'capital': 'Washington D.C.', 'languages': [{'code': 'en', 'name': 'English', 'native': 'English'}], 'country_flag': 'https://assets.ipstack.com/flags/us.svg', 'country_flag_emoji': 'ğŸ‡ºğŸ‡¸', 'country_flag_emoji_unicode': 'U+1F1FA U+1F1F8', 'calling_code': '1', 'is_eu': False}}",49.51.77.119,ipv4,NA,North America,US,United States,CA,California,Los Angeles,90013,34.04563903808594,-118.24163818359375,5368361.0,Washington D.C.,"[{'code': 'en', 'name': 'English', 'native': 'English'}]",https://assets.ipstack.com/flags/us.svg,ğŸ‡ºğŸ‡¸,U+1F1FA U+1F1F8,1,False,,,,
86,https://feitsui-siliconvalley-1251417183.cos.na-siliconvalley.myqcloud.com/ping.html,Tencent,CA,Silicon Valley,United States,170.106.97.195,"{'ip': '170.106.97.195', 'type': 'ipv4', 'continent_code': 'NA', 'continent_name': 'North America', 'country_code': 'US', 'country_name': 'United States', 'region_code': 'CA', 'region_name': 'California', 'city': 'Los Angeles', 'zip': '90013', 'latitude': 34.04563903808594, 'longitude': -118.24163818359375, 'location': {'geoname_id': 5368361, 'capital': 'Washington D.C.', 'languages': [{'code': 'en', 'name': 'English', 'native': 'English'}], 'country_flag': 'https://assets.ipstack.com/flags/us.svg', 'country_flag_emoji': 'ğŸ‡ºğŸ‡¸', 'country_flag_emoji_unicode': 'U+1F1FA U+1F1F8', 'calling_code': '1', 'is_eu': False}}",170.106.97.195,ipv4,NA,North America,US,United States,CA,California,Los Angeles,90013,34.04563903808594,-118.24163818359375,5368361.0,Washington D.C.,"[{'code': 'en', 'name': 'English', 'native': 'English'}]",https://assets.ipstack.com/flags/us.svg,ğŸ‡ºğŸ‡¸,U+1F1FA U+1F1F8,1,False,,,,
87,https://feitsui-yto-1251417183.cos.na-toronto.myqcloud.com/ping.html,Tencent,Unknown,Toronto,Canada,49.51.54.104,"{'ip': '49.51.54.104', 'type': 'ipv4', 'continent_code': 'NA', 'continent_name': 'North America', 'country_code': 'CA', 'country_name': 'Canada', 'region_code': 'ON', 'region_name': 'Ontario', 'city': 'Barrie', 'zip': 'L4M 1A1', 'latitude': 44.3861083984375, 'longitude': -79.67971801757812, 'location': {'geoname_id': 5894171, 'capital': 'Ottawa', 'languages': [{'code': 'en', 'name': 'English', 'native': 'English'}, {'code': 'fr', 'name': 'French', 'native': 'FranÃ§ais'}], 'country_flag': 'https://assets.ipstack.com/flags/ca.svg', 'country_flag_emoji': 'ğŸ‡¨ğŸ‡¦', 'country_flag_emoji_unicode': 'U+1F1E8 U+1F1E6', 'calling_code': '1', 'is_eu': False}}",49.51.54.104,ipv4,NA,North America,CA,Canada,ON,Ontario,Barrie,L4M 1A1,44.3861083984375,-79.67971801757812,5894171.0,Ottawa,"[{'code': 'en', 'name': 'English', 'native': 'English'}, {'code': 'fr', 'name': 'French', 'native': 'FranÃ§ais'}]",https://assets.ipstack.com/flags/ca.svg,ğŸ‡¨ğŸ‡¦,U+1F1E8 U+1F1E6,1,False,,,,
88,https://feitsui-gru-1251417183.cos.sa-saopaulo.myqcloud.com/ping.html,Tencent,Unknown,Sao Paulo,Brazil,43.157.144.10,"{'ip': '43.157.144.10', 'type': 'ipv4', 'continent_code': 'SA', 'continent_name': 'South America', 'country_code': 'BR', 'country_name': 'Brazil', 'region_code': 'SP', 'region_name': 'SÃ£o Paulo', 'city': 'SÃ£o Paulo', 'zip': '01001-000', 'latitude': -23.547500610351562, 'longitude': -46.6361083984375, 'location': {'geoname_id': 3448439, 'capital': 'BrasÃ­lia', 'languages': [{'code': 'pt', 'name': 'Portuguese', 'native': 'PortuguÃªs'}], 'country_flag': 'https://assets.ipstack.com/flags/br.svg', 'country_flag_emoji': 'ğŸ‡§ğŸ‡·', 'country_flag_emoji_unicode': 'U+1F1E7 U+1F1F7', 'calling_code': '55', 'is_eu': False}}",43.157.144.10,ipv4,SA,South America,BR,Brazil,SP,SÃ£o Paulo,SÃ£o Paulo,01001-000,-23.547500610351562,-46.6361083984375,3448439.0,BrasÃ­lia,"[{'code': 'pt', 'name': 'Portuguese', 'native': 'PortuguÃªs'}]",https://assets.ipstack.com/flags/br.svg,ğŸ‡§ğŸ‡·,U+1F1E7 U+1F1F7,55,False,,,,
89,https://feitsui-fra-1251417183.cos.eu-frankfurt.myqcloud.com/ping.html,Tencent,Unknown,Frankfurt,Germany,162.62.150.176,"{'ip': '162.62.150.176', 'type': 'ipv4', 'continent_code': 'EU', 'continent_name': 'Europe', 'country_code': 'DE', 'country_name': 'Germany', 'region_code': 'HE', 'region_name': 'Hesse', 'city': 'Frankfurt am Main', 'zip': '60311', 'latitude': 50.11090087890625, 'longitude': 8.682100296020508, 'location': {'geoname_id': 2925533, 'capital': 'Berlin', 'languages': [{'code': 'de', 'name': 'German', 'native': 'Deutsch'}], 'country_flag': 'https://assets.ipstack.com/flags/de.svg', 'country_flag_emoji': 'ğŸ‡©ğŸ‡ª', 'country_flag_emoji_unicode': 'U+1F1E9 U+1F1EA', 'calling_code': '49', 'is_eu': True}}",162.62.150.176,ipv4,EU,Europe,DE,Germany,HE,Hesse,Frankfurt am Main,60311,50.11090087890625,8.682100296020508,2925533.0,Berlin,"[{'code': 'de', 'name': 'German', 'native': 'Deutsch'}]",https://assets.ipstack.com/flags/de.svg,ğŸ‡©ğŸ‡ª,U+1F1E9 U+1F1EA,49,True,,,,
90,https://feitsui-hk.hk.ufileos.com/ping.html,UCloud,hk,Hong Kong,Hong Kong,123.58.223.81,"{'ip': '123.58.223.81', 'type': 'ipv4', 'continent_code': 'AS', 'continent_name': 'Asia', 'country_code': 'HK', 'country_name': 'Hong Kong SAR China', 'region_code': 'HSO', 'region_name': 'Southern', 'city': 'Aberdeen', 'zip': None, 'latitude': 22.248310089111328, 'longitude': 114.15239715576172, 'location': {'geoname_id': 1819757, 'capital': 'City of Victoria', 'languages': [{'code': 'zh', 'name': 'Chinese', 'native': 'ä¸­æ–‡'}, {'code': 'en', 'name': 'English', 'native': 'English'}], 'country_flag': 'https://assets.ipstack.com/flags/hk.svg', 'country_flag_emoji': 'ğŸ‡­ğŸ‡°', 'country_flag_emoji_unicode': 'U+1F1ED U+1F1F0', 'calling_code': '852', 'is_eu': False}}",123.58.223.81,ipv4,AS,Asia,HK,Hong Kong SAR China,HSO,Southern,Aberdeen,,22.248310089111328,114.15239715576172,1819757.0,City of Victoria,"[{'code': 'zh', 'name': 'Chinese', 'native': 'ä¸­æ–‡'}, {'code': 'en', 'name': 'English', 'native': 'English'}]",https://assets.ipstack.com/flags/hk.svg,ğŸ‡­ğŸ‡°,U+1F1ED U+1F1F0,852,False,,,,
91,https://feitsui-tpe.tw-tp.ufileos.com/ping.html,UCloud,tw-tp,Taipei,Taiwan,152.32.231.7,"{'ip': '152.32.231.7', 'type': 'ipv4', 'continent_code': 'AS', 'continent_name': 'Asia', 'country_code': 'HK', 'country_name': 'Hong Kong SAR China', 'region_code': 'HSO', 'region_name': 'Southern', 'city': 'Aberdeen', 'zip': None, 'latitude': 22.248310089111328, 'longitude': 114.15239715576172, 'location': {'geoname_id': 1819757, 'capital': 'City of Victoria', 'languages': [{'code': 'zh', 'name': 'Chinese', 'native': 'ä¸­æ–‡'}, {'code': 'en', 'name': 'English', 'native': 'English'}], 'country_flag': 'https://assets.ipstack.com/flags/hk.svg', 'country_flag_emoji': 'ğŸ‡­ğŸ‡°', 'country_flag_emoji_unicode': 'U+1F1ED U+1F1F0', 'calling_code': '852', 'is_eu': False}}",152.32.231.7,ipv4,AS,Asia,HK,Hong Kong SAR China,HSO,Southern,Aberdeen,,22.248310089111328,114.15239715576172,1819757.0,City of Victoria,"[{'code': 'zh', 'name': 'Chinese', 'native': 'ä¸­æ–‡'}, {'code': 'en', 'name': 'English', 'native': 'English'}]",https://assets.ipstack.com/flags/hk.svg,ğŸ‡­ğŸ‡°,U+1F1ED U+1F1F0,852,False,,,,
92,https://feitsui-los.afr-nigeria.ufileos.com/ping.html,UCloud,afr-nigeria,Lagos,Nigeria,23.248.185.157,"{'ip': '23.248.185.157', 'type': 'ipv4', 'continent_code': 'AS', 'continent_name': 'Asia', 'country_code': 'HK', 'country_name': 'Hong Kong SAR China', 'region_code': 'HSO', 'region_name': 'Southern', 'city': 'Aberdeen', 'zip': None, 'latitude': 22.248310089111328, 'longitude': 114.15239715576172, 'location': {'geoname_id': 1819757, 'capital': 'City of Victoria', 'languages': [{'code': 'zh', 'name': 'Chinese', 'native': 'ä¸­æ–‡'}, {'code': 'en', 'name': 'English', 'native': 'English'}], 'country_flag': 'https://assets.ipstack.com/flags/hk.svg', 'country_flag_emoji': 'ğŸ‡­ğŸ‡°', 'country_flag_emoji_unicode': 'U+1F1ED U+1F1F0', 'calling_code': '852', 'is_eu': False}}",23.248.185.157,ipv4,AS,Asia,HK,Hong Kong SAR China,HSO,Southern,Aberdeen,,22.248310089111328,114.15239715576172,1819757.0,City of Victoria,"[{'code': 'zh', 'name': 'Chinese', 'native': 'ä¸­æ–‡'}, {'code': 'en', 'name': 'English', 'native': 'English'}]",https://assets.ipstack.com/flags/hk.svg,ğŸ‡­ğŸ‡°,U+1F1ED U+1F1F0,852,False,,,,
93,https://feitsui-gru.bra-saopaulo.ufileos.com/ping.html,UCloud,bra-saopaulo,Sao Paulo,Brazil,172.96.124.45,"{'ip': '172.96.124.45', 'type': 'ipv4', 'continent_code': 'AS', 'continent_name': 'Asia', 'country_code': 'HK', 'country_name': 'Hong Kong SAR China', 'region_code': 'HSO', 'region_name': 'Southern', 'city': 'Aberdeen', 'zip': None, 'latitude': 22.248310089111328, 'longitude': 114.15239715576172, 'location': {'geoname_id': 1819757, 'capital': 'City of Victoria', 'languages': [{'code': 'zh', 'name': 'Chinese', 'native': 'ä¸­æ–‡'}, {'code': 'en', 'name': 'English', 'native': 'English'}], 'country_flag': 'https://assets.ipstack.com/flags/hk.svg', 'country_flag_emoji': 'ğŸ‡­ğŸ‡°', 'country_flag_emoji_unicode': 'U+1F1ED U+1F1F0', 'calling_code': '852', 'is_eu': False}}",172.96.124.45,ipv4,AS,Asia,HK,Hong Kong SAR China,HSO,Southern,Aberdeen,,22.248310089111328,114.15239715576172,1819757.0,City of Victoria,"[{'code': 'zh', 'name': 'Chinese', 'native': 'ä¸­æ–‡'}, {'code': 'en', 'name': 'English', 'native': 'English'}]",https://assets.ipstack.com/flags/hk.svg,ğŸ‡­ğŸ‡°,U+1F1ED U+1F1F0,852,False,,,,
94,https://feitsui-fra.ge-fra.ufileos.com/ping.html,UCloud,ge-fra,Frankfurt,Germany,128.14.225.21,"{'ip': '128.14.225.21', 'type': 'ipv4', 'continent_code': 'AS', 'continent_name': 'Asia', 'country_code': 'HK', 'country_name': 'Hong Kong SAR China', 'region_code': 'HSO', 'region_name': 'Southern', 'city': 'Aberdeen', 'zip': None, 'latitude': 22.248310089111328, 'longitude': 114.15239715576172, 'location': {'geoname_id': 1819757, 'capital': 'City of Victoria', 'languages': [{'code': 'zh', 'name': 'Chinese', 'native': 'ä¸­æ–‡'}, {'code': 'en', 'name': 'English', 'native': 'English'}], 'country_flag': 'https://assets.ipstack.com/flags/hk.svg', 'country_flag_emoji': 'ğŸ‡­ğŸ‡°', 'country_flag_emoji_unicode': 'U+1F1ED U+1F1F0', 'calling_code': '852', 'is_eu': False}}",128.14.225.21,ipv4,AS,Asia,HK,Hong Kong SAR China,HSO,Southern,Aberdeen,,22.248310089111328,114.15239715576172,1819757.0,City of Victoria,"[{'code': 'zh', 'name': 'Chinese', 'native': 'ä¸­æ–‡'}, {'code': 'en', 'name': 'English', 'native': 'English'}]",https://assets.ipstack.com/flags/hk.svg,ğŸ‡­ğŸ‡°,U+1F1ED U+1F1F0,852,False,,,,
95,https://feitsui-cgk.idn-jakarta.ufileos.com/ping.html,UCloud,idn-jakarta,Jakarta,Indonesia,152.32.152.148,"{'ip': '152.32.152.148', 'type': 'ipv4', 'continent_code': 'AS', 'continent_name': 'Asia', 'country_code': 'HK', 'country_name': 'Hong Kong SAR China', 'region_code': 'HSO', 'region_name': 'Southern', 'city': 'Aberdeen', 'zip': None, 'latitude': 22.248310089111328, 'longitude': 114.15239715576172, 'location': {'geoname_id': 1819757, 'capital': 'City of Victoria', 'languages': [{'code': 'zh', 'name': 'Chinese', 'native': 'ä¸­æ–‡'}, {'code': 'en', 'name': 'English', 'native': 'English'}], 'country_flag': 'https://assets.ipstack.com/flags/hk.svg', 'country_flag_emoji': 'ğŸ‡­ğŸ‡°', 'country_flag_emoji_unicode': 'U+1F1ED U+1F1F0', 'calling_code': '852', 'is_eu': False}}",152.32.152.148,ipv4,AS,Asia,HK,Hong Kong SAR China,HSO,Southern,Aberdeen,,22.248310089111328,114.15239715576172,1819757.0,City of Victoria,"[{'code': 'zh', 'name': 'Chinese', 'native': 'ä¸­æ–‡'}, {'code': 'en', 'name': 'English', 'native': 'English'}]",https://assets.ipstack.com/flags/hk.svg,ğŸ‡­ğŸ‡°,U+1F1ED U+1F1F0,852,False,,,,
96,https://feitsui-bom.ind-mumbai.ufileos.com/ping.html,UCloud,ind-mumbai,Mumbai,India,45.40.56.163,"{'ip': '45.40.56.163', 'type': 'ipv4', 'continent_code': 'AS', 'continent_name': 'Asia', 'country_code': 'HK', 'country_name': 'Hong Kong SAR China', 'region_code': 'HSO', 'region_name': 'Southern', 'city': 'Aberdeen', 'zip': None, 'latitude': 22.248310089111328, 'longitude': 114.15239715576172, 'location': {'geoname_id': 1819757, 'capital': 'City of Victoria', 'languages': [{'code': 'zh', 'name': 'Chinese', 'native': 'ä¸­æ–‡'}, {'code': 'en', 'name': 'English', 'native': 'English'}], 'country_flag': 'https://assets.ipstack.com/flags/hk.svg', 'country_flag_emoji': 'ğŸ‡­ğŸ‡°', 'country_flag_emoji_unicode': 'U+1F1ED U+1F1F0', 'calling_code': '852', 'is_eu': False}}",45.40.56.163,ipv4,AS,Asia,HK,Hong Kong SAR China,HSO,Southern,Aberdeen,,22.248310089111328,114.15239715576172,1819757.0,City of Victoria,"[{'code': 'zh', 'name': 'Chinese', 'native': 'ä¸­æ–‡'}, {'code': 'en', 'name': 'English', 'native': 'English'}]",https://assets.ipstack.com/flags/hk.svg,ğŸ‡­ğŸ‡°,U+1F1ED U+1F1F0,852,False,,,,
97,https://feitsui-icn.kr-seoul.ufileos.com/ping.html,UCloud,kr-seoul,Seoul,Korea,165.154.85.11,"{'ip': '165.154.85.11', 'type': 'ipv4', 'continent_code': 'AS', 'continent_name': 'Asia', 'country_code': 'KR', 'country_name': 'South Korea', 'region_code': '41', 'region_name': 'Gyeonggi-do', 'city': 'Anseong', 'zip': None, 'latitude': 37.0, 'longitude': 127.30000305175781, 'location': {'geoname_id': 1846912, 'capital': 'Seoul', 'languages': [{'code': 'ko', 'name': 'Korean', 'native': 'í•œêµ­ì–´'}], 'country_flag': 'https://assets.ipstack.com/flags/kr.svg', 'country_flag_emoji': 'ğŸ‡°ğŸ‡·', 'country_flag_emoji_unicode': 'U+1F1F0 U+1F1F7', 'calling_code': '82', 'is_eu': False}}",165.154.85.11,ipv4,AS,Asia,KR,South Korea,41,Gyeonggi-do,Anseong,,37.0,127.30000305175781,1846912.0,Seoul,"[{'code': 'ko', 'name': 'Korean', 'native': 'í•œêµ­ì–´'}]",https://assets.ipstack.com/flags/kr.svg,ğŸ‡°ğŸ‡·,U+1F1F0 U+1F1F7,82,False,,,,
98,https://feitsui-sg.sg.ufileos.com/ping.html,UCloud,sg,Singapore,Singapore,104.218.162.88,"{'ip': '104.218.162.88', 'type': 'ipv4', 'continent_code': 'AS', 'continent_name': 'Asia', 'country_code': 'HK', 'country_name': 'Hong Kong SAR China', 'region_code': 'HSO', 'region_name': 'Southern', 'city': 'Aberdeen', 'zip': None, 'latitude': 22.248310089111328, 'longitude': 114.15239715576172, 'location': {'geoname_id': 1819757, 'capital': 'City of Victoria', 'languages': [{'code': 'zh', 'name': 'Chinese', 'native': 'ä¸­æ–‡'}, {'code': 'en', 'name': 'English', 'native': 'English'}], 'country_flag': 'https://assets.ipstack.com/flags/hk.svg', 'country_flag_emoji': 'ğŸ‡­ğŸ‡°', 'country_flag_emoji_unicode': 'U+1F1ED U+1F1F0', 'calling_code': '852', 'is_eu': False}}",104.218.162.88,ipv4,AS,Asia,HK,Hong Kong SAR China,HSO,Southern,Aberdeen,,22.248310089111328,114.15239715576172,1819757.0,City of Victoria,"[{'code': 'zh', 'name': 'Chinese', 'native': 'ä¸­æ–‡'}, {'code': 'en', 'name': 'English', 'native': 'English'}]",https://assets.ipstack.com/flags/hk.svg,ğŸ‡­ğŸ‡°,U+1F1ED U+1F1F0,852,False,,,,
99,https://feitsui-dxb.uae-dubai.ufileos.com/ping.html,UCloud,uae-dubai,Dubai,UAE,23.248.184.33,"{'ip': '23.248.184.33', 'type': 'ipv4', 'continent_code': 'AS', 'continent_name': 'Asia', 'country_code': 'HK', 'country_name': 'Hong Kong SAR China', 'region_code': 'HSO', 'region_name': 'Southern', 'city': 'Aberdeen', 'zip': None, 'latitude': 22.248310089111328, 'longitude': 114.15239715576172, 'location': {'geoname_id': 1819757, 'capital': 'City of Victoria', 'languages': [{'code': 'zh', 'name': 'Chinese', 'native': 'ä¸­æ–‡'}, {'code': 'en', 'name': 'English', 'native': 'English'}], 'country_flag': 'https://assets.ipstack.com/flags/hk.svg', 'country_flag_emoji': 'ğŸ‡­ğŸ‡°', 'country_flag_emoji_unicode': 'U+1F1ED U+1F1F0', 'calling_code': '852', 'is_eu': False}}",23.248.184.33,ipv4,AS,Asia,HK,Hong Kong SAR China,HSO,Southern,Aberdeen,,22.248310089111328,114.15239715576172,1819757.0,City of Victoria,"[{'code': 'zh', 'name': 'Chinese', 'native': 'ä¸­æ–‡'}, {'code': 'en', 'name': 'English', 'native': 'English'}]",https://assets.ipstack.com/flags/hk.svg,ğŸ‡­ğŸ‡°,U+1F1ED U+1F1F0,852,False,,,,
100,https://feitsui-lax.us-ca.ufileos.com/ping.html,UCloud,us-ca,Los Angeles,US,118.193.76.37,"{'ip': '118.193.76.37', 'type': 'ipv4', 'continent_code': 'NA', 'continent_name': 'North America', 'country_code': 'US', 'country_name': 'United States', 'region_code': 'CA', 'region_name': 'California', 'city': 'Los Angeles', 'zip': '90013', 'latitude': 34.04563903808594, 'longitude': -118.24163818359375, 'location': {'geoname_id': 5368361, 'capital': 'Washington D.C.', 'languages': [{'code': 'en', 'name': 'English', 'native': 'English'}], 'country_flag': 'https://assets.ipstack.com/flags/us.svg', 'country_flag_emoji': 'ğŸ‡ºğŸ‡¸', 'country_flag_emoji_unicode': 'U+1F1FA U+1F1F8', 'calling_code': '1', 'is_eu': False}}",118.193.76.37,ipv4,NA,North America,US,United States,CA,California,Los Angeles,90013,34.04563903808594,-118.24163818359375,5368361.0,Washington D.C.,"[{'code': 'en', 'name': 'English', 'native': 'English'}]",https://assets.ipstack.com/flags/us.svg,ğŸ‡ºğŸ‡¸,U+1F1FA U+1F1F8,1,False,,,,
101,https://feitsui-us-ws.us-ws.ufileos.com/ping.html,UCloud,us-ws,Washington,US,128.14.235.16,"{'ip': '128.14.235.16', 'type': 'ipv4', 'continent_code': 'AS', 'continent_name': 'Asia', 'country_code': 'HK', 'country_name': 'Hong Kong SAR China', 'region_code': 'HSO', 'region_name': 'Southern', 'city': 'Aberdeen', 'zip': None, 'latitude': 22.248310089111328, 'longitude': 114.15239715576172, 'location': {'geoname_id': 1819757, 'capital': 'City of Victoria', 'languages': [{'code': 'zh', 'name': 'Chinese', 'native': 'ä¸­æ–‡'}, {'code': 'en', 'name': 'English', 'native': 'English'}], 'country_flag': 'https://assets.ipstack.com/flags/hk.svg', 'country_flag_emoji': 'ğŸ‡­ğŸ‡°', 'country_flag_emoji_unicode': 'U+1F1ED U+1F1F0', 'calling_code': '852', 'is_eu': False}}",128.14.235.16,ipv4,AS,Asia,HK,Hong Kong SAR China,HSO,Southern,Aberdeen,,22.248310089111328,114.15239715576172,1819757.0,City of Victoria,"[{'code': 'zh', 'name': 'Chinese', 'native': 'ä¸­æ–‡'}, {'code': 'en', 'name': 'English', 'native': 'English'}]",https://assets.ipstack.com/flags/hk.svg,ğŸ‡­ğŸ‡°,U+1F1ED U+1F1F0,852,False,,,,
102,https://feitsui-sgn.vn-sng.ufileos.com/ping.html,UCloud,vn-sng,Singapore,Singapore,152.32.160.34,"{'ip': '152.32.160.34', 'type': 'ipv4', 'continent_code': 'AS', 'continent_name': 'Asia', 'country_code': 'HK', 'country_name': 'Hong Kong SAR China', 'region_code': 'HSO', 'region_name': 'Southern', 'city': 'Aberdeen', 'zip': None, 'latitude': 22.248310089111328, 'longitude': 114.15239715576172, 'location': {'geoname_id': 1819757, 'capital': 'City of Victoria', 'languages': [{'code': 'zh', 'name': 'Chinese', 'native': 'ä¸­æ–‡'}, {'code': 'en', 'name': 'English', 'native': 'English'}], 'country_flag': 'https://assets.ipstack.com/flags/hk.svg', 'country_flag_emoji': 'ğŸ‡­ğŸ‡°', 'country_flag_emoji_unicode': 'U+1F1ED U+1F1F0', 'calling_code': '852', 'is_eu': False}}",152.32.160.34,ipv4,AS,Asia,HK,Hong Kong SAR China,HSO,Southern,Aberdeen,,22.248310089111328,114.15239715576172,1819757.0,City of Victoria,"[{'code': 'zh', 'name': 'Chinese', 'native': 'ä¸­æ–‡'}, {'code': 'en', 'name': 'English', 'native': 'English'}]",https://assets.ipstack.com/flags/hk.svg,ğŸ‡­ğŸ‡°,U+1F1ED U+1F1F0,852,False,,,,
103,https://feitsui-bjs.cn-bj.ufileos.com/ping.html,UCloud,cn-bj,Beijing,China,117.50.123.29,"{'ip': '117.50.123.29', 'type': 'ipv4', 'continent_code': 'AS', 'continent_name': 'Asia', 'country_code': 'CN', 'country_name': 'China', 'region_code': 'SH', 'region_name': 'Shanghai', 'city': 'Shanghai', 'zip': '200000', 'latitude': 31.228469848632812, 'longitude': 121.47020721435547, 'location': {'geoname_id': 1796236, 'capital': 'Beijing', 'languages': [{'code': 'zh', 'name': 'Chinese', 'native': 'ä¸­æ–‡'}], 'country_flag': 'https://assets.ipstack.com/flags/cn.svg', 'country_flag_emoji': 'ğŸ‡¨ğŸ‡³', 'country_flag_emoji_unicode': 'U+1F1E8 U+1F1F3', 'calling_code': '86', 'is_eu': False}}",117.50.123.29,ipv4,AS,Asia,CN,China,SH,Shanghai,Shanghai,200000,31.228469848632812,121.47020721435547,1796236.0,Beijing,"[{'code': 'zh', 'name': 'Chinese', 'native': 'ä¸­æ–‡'}]",https://assets.ipstack.com/flags/cn.svg,ğŸ‡¨ğŸ‡³,U+1F1E8 U+1F1F3,86,False,,,,
104,https://feitsui-can.cn-gd.ufileos.com/ping.html,UCloud,cn-gd,Guangzhou,China,106.75.183.117,"{'ip': '106.75.183.117', 'type': 'ipv4', 'continent_code': 'AS', 'continent_name': 'Asia', 'country_code': 'CN', 'country_name': 'China', 'region_code': 'SH', 'region_name': 'Shanghai', 'city': 'Shanghai', 'zip': '200000', 'latitude': 31.228469848632812, 'longitude': 121.47020721435547, 'location': {'geoname_id': 1796236, 'capital': 'Beijing', 'languages': [{'code': 'zh', 'name': 'Chinese', 'native': 'ä¸­æ–‡'}], 'country_flag': 'https://assets.ipstack.com/flags/cn.svg', 'country_flag_emoji': 'ğŸ‡¨ğŸ‡³', 'country_flag_emoji_unicode': 'U+1F1E8 U+1F1F3', 'calling_code': '86', 'is_eu': False}}",106.75.183.117,ipv4,AS,Asia,CN,China,SH,Shanghai,Shanghai,200000,31.228469848632812,121.47020721435547,1796236.0,Beijing,"[{'code': 'zh', 'name': 'Chinese', 'native': 'ä¸­æ–‡'}]",https://assets.ipstack.com/flags/cn.svg,ğŸ‡¨ğŸ‡³,U+1F1E8 U+1F1F3,86,False,,,,
105,https://feitsui-sha2.cn-sh2.ufileos.com/ping.html,UCloud,cn-sh2,Shanghai 2,China,113.31.160.176,"{'ip': '113.31.160.176', 'type': 'ipv4', 'continent_code': 'AS', 'continent_name': 'Asia', 'country_code': 'CN', 'country_name': 'China', 'region_code': 'SH', 'region_name': 'Shanghai', 'city': 'Shanghai', 'zip': '200000', 'latitude': 31.228469848632812, 'longitude': 121.47020721435547, 'location': {'geoname_id': 1796236, 'capital': 'Beijing', 'languages': [{'code': 'zh', 'name': 'Chinese', 'native': 'ä¸­æ–‡'}], 'country_flag': 'https://assets.ipstack.com/flags/cn.svg', 'country_flag_emoji': 'ğŸ‡¨ğŸ‡³', 'country_flag_emoji_unicode': 'U+1F1E8 U+1F1F3', 'calling_code': '86', 'is_eu': False}}",113.31.160.176,ipv4,AS,Asia,CN,China,SH,Shanghai,Shanghai,200000,31.228469848632812,121.47020721435547,1796236.0,Beijing,"[{'code': 'zh', 'name': 'Chinese', 'native': 'ä¸­æ–‡'}]",https://assets.ipstack.com/flags/cn.svg,ğŸ‡¨ğŸ‡³,U+1F1E8 U+1F1F3,86,False,,,,
106,https://fsn1-speed.hetzner.com/,Hetzner,fsn1,Falkenstein,Germany,78.46.170.2,"{'ip': '78.46.170.2', 'type': 'ipv4', 'continent_code': 'EU', 'continent_name': 'Europe', 'country_code': 'DE', 'country_name': 'Germany', 'region_code': 'BY', 'region_name': 'Bavaria', 'city': 'Gunzenhausen', 'zip': '91710', 'latitude': 49.11594009399414, 'longitude': 10.753399848937988, 'location': {'geoname_id': 2913537, 'capital': 'Berlin', 'languages': [{'code': 'de', 'name': 'German', 'native': 'Deutsch'}], 'country_flag': 'https://assets.ipstack.com/flags/de.svg', 'country_flag_emoji': 'ğŸ‡©ğŸ‡ª', 'country_flag_emoji_unicode': 'U+1F1E9 U+1F1EA', 'calling_code': '49', 'is_eu': True}}",78.46.170.2,ipv4,EU,Europe,DE,Germany,BY,Bavaria,Gunzenhausen,91710,49.11594009399414,10.753399848937988,2913537.0,Berlin,"[{'code': 'de', 'name': 'German', 'native': 'Deutsch'}]",https://assets.ipstack.com/flags/de.svg,ğŸ‡©ğŸ‡ª,U+1F1E9 U+1F1EA,49,True,,,,
